id,rev,name,zip,lat,lng
245793,12740.9,"YELLOW ROSE DISTILLING LLC    ",77055,29.788519,-95.455744
245833,0,"BJ HOOKER'S DISTILLERIES, LLC ",77073,29.994909,-95.386831
246001,30986.87,"COPPERFIELD BOWL              ",77095,29.8824654,-95.6426286
246013,15916.87,"LONE STAR SALOON              ",77002,29.7507888,-95.3714548
246025,3152.99,"PAPPAS BAR-B-Q                ",77002,29.7482711,-95.3685065
246037,471288.96,"POLK SMITH REGENCY INC        ",77002,29.7570609,-95.3694708
246073,115251.94,"300 HOUSTON                   ",77024,29.7801661,-95.5322621
246077,0,"AMF CLEAR LAKE BOWL           ",77062,29.557698,-95.11874
246101,17303.88,"RED LOBSTER OF TEXAS INC 841  ",77040,29.8474635,-95.5013565
246192,236217.91,"CORNER ENTERTAINMENT          ",77098,29.7414717,-95.4214246
246229,67748.96,"BRAE-BURN COUNTRY CLUB        ",77074,29.675866,-95.521176
246284,49446.87,"BENIHANA OF TOKYO             ",77002,29.7561725,-95.3697628
246307,75053.88,"BRADY'S LANDING #21           ",77012,29.7254202,-95.2754179
246311,70981.94,"BENIHANA OF TOKYO             ",77042,29.7365359,-95.540203
246332,15417.91,"MERINO'S LOUNGE & LA PLAYA RES",77011,29.7344785,-95.2983556
246370,271320,"PALM RESTAURANT               ",77057,29.7389967,-95.4905009
246441,12543.88,"AMF WINDFERN BOWL #397        ",77040,29.86337,-95.535195
246445,40166.87,"WISH'S CLUB & RESTAURANT      ",77040,29.8697643,-95.5463127
246452,90197.91,"NINOS RESTAURANT & BAR INC    ",77019,29.7571789,-95.3953694
246460,1220,"VERONA RESTAURANT CORP        ",77063,29.7207523,-95.5389578
246472,4393.88,"MERIDA RESTAURANT             ",77003,29.7582239,-95.3437146
246496,20987.91,"CHEZ LOUNGE                   ",77025,29.67394,-95.4311025
246500,292953.88,"TASTE OF TEXAS                ",77024,29.7828129,-95.5569162
246516,2560,"CORRAL CLUB                   ",77054,29.678505,-95.4086909
246544,16273.88,"RED LOBSTER RESTAURANT #840   ",77090,30.0205293,-95.4333792
246575,21073.88,"EL JARDIN RESTAURANT          ",77012,29.7305476,-95.28425
246611,92600.9,"LA COLOMBE D'OR               ",77006,29.7416593,-95.3916064
246686,26987.91,"LECHNER'S                     ",77063,29.7403865,-95.5375389
246702,49496.87,"JUNIOR LEAGUE OF HOUSTON      ",77027,29.7487637,-95.4505409
246741,16093.88,"BJ SPORTS PUB                 ",77074,29.675295,-95.541057
246753,16662.99,"RED LOBSTER OF TEXAS INC #864 ",77082,29.726345,-95.6448407
246861,23255.97,"ART OF THE SPIRITS INC        ",77004,29.7252762,-95.3887669
246868,0,"BLANCO'S                      ",77027,29.738645,-95.4312728
246893,90105.97,"CLUB ONYX HOUSTON             ",77057,29.7325912,-95.4800565
246912,17065.97,"GIN MILL                      ",77099,29.6549173,-95.5686944
246932,128730,"BACK STREET CAFE              ",77019,29.7552973,-95.4086418
246940,59260.9,"CARMELO'S ITALIAN RESTAURANT  ",77079,29.7712428,-95.612523
246960,36831.94,"EL MESON SPANISH MEXICAN RESTA",77005,29.714812,-95.415996
246964,37826.87,"PAPPAS SEAFOOD HOUSE & OYSTER ",77029,29.7711745,-95.2257563
246976,620536.87,"PAPPAS BROS STEAKHOUSE        ",77057,29.7372735,-95.4817011
246980,106476.87,"PAPPADEAUX SEAFOOD KITCHEN    ",77057,29.7367156,-95.4885416
247000,88872.99,"LOPEZ MEXICAN RESTAURANT      ",77099,29.6534882,-95.5704426
247004,30640.9,"DOUBLE T'S BAR & GRILL        ",77083,29.7018622,-95.6504472
247043,108896.87,"PAPPASITO'S CANTINA           ",77057,29.7311939,-95.5002998
247063,13884.93,"PICO'S RESTAURANT             ",77081,29.7052908,-95.486003
247075,85196.87,"LUPE TORTILLAS MEXICAN RESTAUR",77079,29.782813,-95.643062
247131,138881.94,"TONY MANDOLA'S                ",77019,29.755876,-95.3984784
247139,23645.97,"CHILI'S HAMBURGER GRILL & BAR ",77034,29.614237,-95.2127633
247171,35012.99,"BABA YEGA                     ",77006,29.7462362,-95.390185
247210,83585.97,"PAPPAS SEAFOOD HOUSE & OYSTER ",77037,29.9296088,-95.4129379
247218,37250,"MOLLY'S PUB                   ",77042,29.7368377,-95.573273
247226,24694.93,"AMF WILLOW BOWL #394          ",77070,29.972388,-95.5609127
247274,5386.87,"KOREA GARDEN RESTAURANT       ",77055,29.7966912,-95.5258214
247294,42190,"CAVATORE ITALIAN RESTAURANT   ",77008,29.8050732,-95.4287959
247302,22801.94,"CHILI'S GRILL & BAR           ",77027,29.7289519,-95.42903
247318,26895.97,"CHILI'S GRILL & BAR           ",77065,29.9151218,-95.6159982
247330,0,"ARAMARK EDUCATIONAL SERVICES O",77004,29.7238713,-95.3476228
247386,11487.91,"FAJITA WILLIES CAFE & CANTINA ",77040,29.8698015,-95.5463983
247420,43551.94,"CEDAR LOUNGE                  ",77076,29.867494,-95.386312
247438,175420.9,"PAPPASITO'S CANTINA 2         ",77090,29.9888266,-95.4231303
247442,63996.87,"BLYTHE SPIRITS                ",77019,29.7535945,-95.388358
247492,33191.94,"SPAGHETTI WAREHOUSE LICENSE IN",77002,29.764378,-95.3600699
247505,73900,"TC'S BAR                      ",77006,29.7478922,-95.3902903
247509,6210,"CASA OLE RESTAURANT (#28)     ",77034,29.6178898,-95.2191485
247525,18028.96,"NIPPON RESTAURANT             ",77006,29.7326988,-95.3914014
247529,21420,"GOODE COMPANY HAMBURGER       ",77098,29.7282884,-95.4190304
247541,79450,"VINCENT'S ITALIAN SANDWICH BAR",77019,29.7572264,-95.3950101
247545,46300,"ZANZIBAR HOUSTON              ",77063,29.7368863,-95.5231653
247561,53467.91,"I-37 INC                      ",77017,29.657427,-95.2564766
247581,36172.99,"CHILI'S GRILL & BAR           ",77056,29.739545,-95.462716
247585,57241.94,"PLAYMATES                     ",77074,29.6749394,-95.5421399
247624,121808.96,"RON'S PUB                     ",77057,29.748609,-95.4864737
247632,35168.96,"T K BITTERMAN'S               ",77098,29.7387933,-95.4086238
247695,25027.91,"TYMES SQUARE                  ",77045,29.613704,-95.448117
247699,20052.99,"LA HACIENDA                   ",77079,29.7705412,-95.611425
247717,37663.88,"MOLLY MAGUIRE'S               ",77068,30.009189,-95.466077
247729,97553.88,"CIRO'S ITALIAN GRILL          ",77024,29.7833444,-95.533797
247753,312910.9,"CARRABBA'S                    ",77098,29.7367144,-95.418308
247793,36070,"MIYAKO II                     ",77098,29.73223,-95.4193774
247805,33510,"THE OLIVE GARDEN ITALIAN RESTA",77055,29.786215,-95.5357307
247817,84701.94,"GOODE COMPANY TEXAS SEAFOOD   ",77098,29.728296,-95.420229
247837,21666.87,"OLIVE GARDEN OF TEXAS INC #104",77092,29.8162691,-95.4639984
247841,86001.94,"RICHMOND ARMS                 ",77057,29.7318417,-95.4832741
247845,32522.99,"NUMBERS                       ",77006,29.7447461,-95.3849427
247901,27050,"FAJITA FLATS                  ",77063,29.7340613,-95.5202083
247967,6442.99,"THE ORIGINAL EL GALLO MEX REST",77070,29.9556352,-95.5850333
247987,144731.94,"HOUSTON'S RESTAURANT          ",77057,29.7386099,-95.4840136
247995,10643.88,"MENCIUS GOURMET HUNAN RESTAURA",77339,30.0495921,-95.2342423
248003,27671.94,"MONTROSE MINING CO            ",77006,29.746518,-95.3903464
248011,11471.94,"THE ORIGINAL EL GALLO MEX REST",77080,29.8119536,-95.5448027
248023,26724.93,"THE OLIVE GARDEN #74          ",77054,29.6916472,-95.4149651
248027,9498.96,"CAFE CHINO                    ",77027,29.7292489,-95.4313345
248042,88468.96,"LIZZARD'S PUB                 ",77098,29.7410321,-95.4225253
248054,192550,"HOUSTON'S RESTAURANT          ",77098,29.7289319,-95.419048
248058,92882.99,"PREGO                         ",77005,29.7158751,-95.4169439
248074,858.96,"CABANA BEVERAGE INC           ",77040,29.9018298,-95.5498509
248098,136637.91,"JR'S BAR & GRILL / HOUSTON    ",77006,29.746934,-95.38996
248102,19196.87,"LA BARE                       ",77057,29.732392,-95.492817
248134,2262.99,"CABANA BEVERAGES, INC.        ",77063,29.7286889,-95.5210752
248138,2637.91,"TACO CABANA BEVERAGES INC     ",77098,29.7318385,-95.4182577
248150,4148.96,"CABANA BEVERAGES, INC.        ",77042,29.7362558,-95.5700446
248162,67222.99,"MAMACITAS MEXICAN RESTAURANT &",77065,29.914606,-95.61705
248182,200354.93,"CARRABBA'S RESTAURANT         ",77057,29.7538351,-95.5005311
248186,47900.9,"SOUTH BEACH                   ",77006,29.747055,-95.390578
248202,2371.94,"OVATIONS                      ",77005,29.7166757,-95.4172082
248218,20701.94,"FUGATE CLUB INC               ",77089,29.611954,-95.2349482
248225,0,"CHILI'S GRILL AND BAR         ",77096,29.6731136,-95.4601331
248237,71653.88,"MOLINA'S MEXICAN RESTAURANT   ",77063,29.7367421,-95.5066121
248241,53287.91,"WARREN'S INN                  ",77002,29.7623772,-95.3616572
248277,18793.88,"BELLA BEVERAGE CORPORATION    ",77030,29.709903,-95.403276
248285,140200.9,"RAINBOW LODGE RESTAURANT      ",77008,29.8047601,-95.4293322
248304,65982.99,"JUMP'S BAR & GRILL            ",77082,29.7216404,-95.6186768
248308,4080.9,"TACO CABANA                   ",77025,29.6925013,-95.4153941
248372,5655.97,"SKEETER'S                     ",77005,29.7221068,-95.4409264
248429,45571.94,"EL PALENQUE MEXICAN RESTAURANT",77070,29.9986704,-95.581486
248433,40794.93,"THE OLIVE GARDEN #1166        ",77070,29.9642843,-95.5422263
248446,17347.91,"VICTOR'S CASA GARCIA MEXICAN C",77449,29.7942245,-95.7195779
248450,29324.93,"MICHELANGELO'S RESTAURANT     ",77006,29.7443689,-95.384966
248466,50345.97,"MOLLY MALONE'S PUB            ",77379,30.0164231,-95.5321437
248501,0,"R WES INC                     ",77070,29.9644013,-95.5419765
248505,30377.91,"THE GOOD FORTUNE CLUB         ",77386,30.116014,-95.4394601
248559,31710,"EL PRINCIPE AZUL              ",77081,29.7114687,-95.4934306
248563,85181.94,"ARAMARK SPORTS AND ENTERTAINME",77007,29.7817369,-95.4097569
248589,51841.94,"SPOTLIGHT KARAOKE             ",77057,29.7368681,-95.4850068
248601,47821.94,"SHAKESPEARE PUB               ",77079,29.7694493,-95.5926942
248605,1496.87,"TEXAS SUNSET GRILL            ",77346,29.9992389,-95.205733
248609,27055.97,"JIMMY G'S CAJUN SEAFOOD RESTAU",77060,29.9683035,-95.3793298
248657,31627.91,"BILLY RAY'S                   ",77049,29.816654,-95.140354
248697,38640.9,"19TH HOLE GRILL & BAR         ",77380,30.1261952,-95.4672962
248717,88847.91,"CARRINGTON'S                  ",77025,29.6799051,-95.4243302
248725,204542.99,"CENTERFOLDS                   ",77057,29.7322494,-95.4895618
248733,11693.88,"MONTEREY'S TEXMEX CAFE (#562) ",77060,29.9509867,-95.4110299
248737,0,"MISSION BURRITO # 806         ",77084,29.86887,-95.644755
248741,0,"MONTEREY'S LITTLE MEXICO (#559",77092,29.8122821,-95.462133
248745,5947.91,"MONTEREY'S LITTLE MEXICO #513 ",77022,29.8289871,-95.3823637
248772,38232.99,"COHEN HOUSE FACULTY CLUB      ",77005,29.7183467,-95.4306141
248792,6260,"ELVIA'S CANTINA               ",77063,29.7364872,-95.5202704
248901,57690,"MONUMENT INN RESTAURANT       ",77571,29.7611583,-95.0805202
248937,44308.96,"BIMBO'S BEER & BAR-B-Q        ",77070,30.010604,-95.585225
248945,102133.88,"GRAND PRIZE                   ",77006,29.730376,-95.391648
248973,27100.9,"THE OLIVE GARDEN OF TEXAS 1259",77034,29.615698,-95.214253
248981,38436.87,"LA MEXICANA RESTAURANT        ",77006,29.748361,-95.391705
248985,56025.97,"BLACK LABRADOR PUB            ",77006,29.7357453,-95.3915978
249005,3095.97,"TACO CABANA                   ",77036,29.7043743,-95.5148206
249017,8602.99,"MIRAGE CABARET                ",77092,29.8172736,-95.4462188
249021,72155.97,"THE HIDEAWAY ON DUNVALE       ",77063,29.730133,-95.514334
249040,6026.87,"TEPPAY CORPORATION            ",77057,29.7387139,-95.5000638
249056,124350,"GOLD CUP                      ",77092,29.8401849,-95.492134
249060,25047.91,"THE OLIVE GARDEN OF TEXAS 1285",77074,29.685505,-95.5335146
249084,46454.93,"OUTBACK STEAKHOUSE            ",77042,29.7362958,-95.5499819
249096,37612.99,"WESTBURY COZY CORNER          ",77035,29.6542029,-95.4815049
249107,70415.97,"FAUD'S RESTAURANT             ",77057,29.7389967,-95.4905009
249115,55798.96,"SWIFT + COMPANY               ",77098,29.7382391,-95.4124186
249123,255672.99,"TRULUCK'S STEAK & STONE CRAB  ",77057,29.7372826,-95.4862606
249140,3065.97,"TACO CABANA                   ",77017,29.6541706,-95.2533291
249152,3772.99,"TACO CABANA                   ",77018,29.8131931,-95.4103448
249184,1486.87,"CABANA BEVERAGES INC          ",77070,29.9914563,-95.5764359
249208,4324.93,"TACO CABANA #172              ",77035,29.6702064,-95.4625251
249212,2108.96,"THE HAPPY GO LUCKY CLUB       ",77087,29.7052989,-95.3078463
249267,48910,"HUNTER'S PUB                  ",77035,29.6663157,-95.4627819
249311,57095.97,"IRISH PUB-KENNEALLY'S         ",77019,29.746493,-95.4103499
249339,322000.9,"HUGHES HANGER                 ",77007,29.7684789,-95.3879658
249355,8956.87,"CASA OLE RESTAURANT (#4)      ",77015,29.7711222,-95.2151738
249363,157220.9,"SC BEVERAGE COMPANY           ",77079,29.7859549,-95.6188395
249396,0,"KEN'S CLUB                    ",77072,29.7030745,-95.5715544
249411,3418.96,"CABANA BEVERAGES INC          ",77099,29.675603,-95.5870593
249419,0,"JUANITO'S NIGHT CLUB          ",77061,29.6629484,-95.2892971
249431,14435.97,"FAJITA WILLIES CAFE & CANTINA ",77095,29.8792271,-95.6441789
249443,32770,"HEFLEY'S                      ",77019,29.753477,-95.380294
249545,90691.94,"MOLLY'S PUB                   ",77062,29.5564357,-95.123172
249605,1853.88,"CABANA BEVERAGES, INC.        ",77007,29.7734533,-95.3990045
249613,1971.94,"EL IMPERIAL MEXICAN RESTAURANT",77015,29.7756005,-95.2181667
249617,27720,"CANARY CLUB                   ",77015,29.783804,-95.17788
249628,29885.97,"CHAYNS                        ",77068,29.99352,-95.489212
249640,43030,"BIG JOHN'S ICE HOUSE          ",77077,29.7544452,-95.6081022
249656,730274.93,"CAMPUS BEVERAGE INC           ",77024,29.7690712,-95.4607201
249664,22876.87,"CAPS PIANO BAR                ",77057,29.73896,-95.4916512
249687,26370,"TEALA'S MEXICAN RESTAURANT    ",77019,29.7574469,-95.3999495
249725,64296.87,"BARNEY'S BILLIARD SALOON #5   ",77090,29.9992761,-95.4803132
249757,58444.93,"R & R SPORTS BAR & GRILL      ",77084,29.795403,-95.688071
249777,27892.99,"BLUTO'S BAR                   ",77063,29.728965,-95.5219537
249789,2066.87,"CABANA BEVERAGES INC          ",77089,29.6129325,-95.2194416
249805,39360.9,"LA REVOLUCION SPORTS BAR      ",77012,29.717165,-95.283046
249825,27402.99,"OUTBACK STEAKHOUSE            ",77450,29.7842308,-95.7272158
249849,27396.87,"CHILI'S GRILL & BAR           ",77070,29.9639235,-95.5429829
249897,48255.97,"SLICK WILLIE'S FAMILY POOL HAL",77006,29.744851,-95.39353
249901,16271.94,"CLEMENTINE'S EATING PARLOR    ",77069,29.9717387,-95.5277915
249905,8035.97,"SEOUL GARDEN                  ",77055,29.7975998,-95.5251359
249921,2158.96,"CABANA BEVERAGES, INC.        ",77079,29.7837658,-95.5844164
249953,64073.88,"TONY'S TAVERN & SPORTS BAR    ",77070,29.9586658,-95.5858312
249969,91384.93,"CHAMPION GOLF CLUB, INC.      ",77069,29.9804559,-95.5304584
249977,30098.96,"MASSA'S                       ",77002,29.7578776,-95.3696174
249985,2330.9,"CABANA BEVERAGES INC          ",77040,29.851881,-95.509254
249997,153085.97,"PAPPASITO'S CANTINA           ",77069,29.9683815,-95.5354058
250050,87250,"TIME OUT #2                   ",77598,29.5570729,-95.1483319
250062,81708.96,"ESCALANTE'S                   ",77057,29.7549664,-95.5007061
250096,110904.93,"DAMIAN'S CUCINA ITALIANA      ",77006,29.744372,-95.3797079
250136,23410.9,"KOOZIE'S ICE HOUSE            ",77088,29.8772132,-95.4834428
250144,134240,"COLORADO BAR AND GRILL        ",77074,29.7160055,-95.5013009
250156,33861.94,"THE BIG EASY SOCIAL AND PLEASU",77005,29.7208094,-95.4181165
250160,42011.94,"BAY OAKS COUNTRY CLUB         ",77059,29.5933713,-95.1260478
250172,25076.87,"OUTBACK STEAKHOUSE            ",77069,29.9792725,-95.5147948
250176,85442.99,"MOLLY'S PUB                   ",77380,30.1145736,-95.4391999
250180,229851.94,"MO'S PLACE                    ",77450,29.775486,-95.7530485
250208,12878.96,"EL CHARRO MEXICAN RESTAURANT C",77065,29.9377879,-95.6288994
250212,21197.91,"OLIVE GARDEN RESTAURANT #1441 ",77082,29.7302454,-95.6448706
250220,174763.88,"PAPPADEUX SEAFOOD KITCHEN     ",77069,29.967648,-95.536506
250224,1404.93,"CABANA BEVERAGES, INC.        ",77090,30.008851,-95.4596909
250238,35418.96,"JB'S PUB                      ",77065,29.9066929,-95.5836769
250266,31643.88,"THE CLUB AT FALCON POINT      ",77494,29.7701473,-95.794591
250278,3516.87,"CABANA BEVERAGES, INC.        ",77082,29.7337222,-95.6432023
250282,75390,"CLICKS BILLIARDS              ",77040,29.8508286,-95.5063582
250378,18124.93,"DON CARLOS MEXICAN RESTAURANT ",77061,29.670195,-95.2763257
250414,26712.99,"CHILI'S GRILL & BAR           ",77090,30.0194377,-95.4379036
250418,89161.94,"FIESTA EN GUADALAJARA         ",77009,29.793003,-95.360579
250450,61350,"THE HOUSTON CLUB              ",77002,29.752554,-95.3704009
250474,116503.88,"PENNISON'S SPORTS PUB TOO     ",77095,29.8894552,-95.6399984
250501,332238.96,"TMC BEVERAGES OF HOUSTON INC  ",77056,29.733522,-95.466103
250505,27515.97,"THE LEXINGTON GRILL           ",77098,29.731448,-95.409853
250521,59117.91,"TIA MARIA'S MEXICAN RESTAURANT",77092,29.8067957,-95.4577627
250525,3073.88,"CABANA BEVERAGES, INC.        ",77450,29.7801582,-95.7512947
250554,4197.91,"LOS CUCOS SEAFOOD & STEAKS INC",77084,29.835792,-95.654315
250620,23801.94,"FAJITA FLATS                  ",77031,29.6493669,-95.5657894
250624,29331.94,"AMEDEO'S ITALIAN RESTAURANT   ",77339,30.040407,-95.251225
250643,39773.88,"T AFIA                        ",77002,29.7386696,-95.3801995
250647,89860.9,"TOMMY'S PATIO CAFE            ",77058,29.5768438,-95.1077386
250667,43427.91,"NIKKIS IRISH PUB              ",77079,29.7843466,-95.5694728
250691,2848.96,"CABANA BEVERAGES INC          ",77373,30.0669435,-95.4334603
250719,79830,"CARRABBA'S ITALIAN GRILL      ",77380,30.1145736,-95.4391999
250742,2170.9,"CABANA BEVERAGES, INC.        ",77065,29.9331448,-95.585375
250746,76996.87,"HI-10 CABARET                 ",77029,29.772598,-95.2271676
250770,16707.91,"GREENSPOINT CLUB              ",77060,29.9476422,-95.4065961
250835,29825.97,"JAX GRILL                     ",77007,29.775392,-95.409946
250839,11040.9,"SPANISH VILLAGE RESTAURANT    ",77004,29.727241,-95.377538
250843,106437.91,"METROPOLIS DISCOTHEQUE/EXTRAVA",77063,29.7280918,-95.5211779
250863,3470,"EL PARAISO MEXICAN RESTAURANT ",77006,29.748257,-95.389892
250883,190485.97,"SHERLOCK'S BAKER ST PUB       ",77042,29.7362958,-95.5499819
250953,207977.91,"OUISIES TABLE                 ",77027,29.746213,-95.4430987
250981,33775.97,"EJ'S PLACE                    ",77068,30.0154162,-95.4690799
250993,104022.99,"PAPPASITO'S CANTINA           ",77029,29.7734918,-95.2294046
251013,229630.9,"TREASURES                     ",77056,29.7374208,-95.4757687
251025,67588.96,"BARNEY'S BILLIARD SALOON NO 16",77380,30.1261952,-95.4672962
251049,177630.9,"OSTIONERIA MICHOACAN          ",77060,29.9321962,-95.4105739
251076,2691.94,"CABANA BEVERAGES INC          ",77086,29.911879,-95.479348
251096,74065.97,"NICK'S PLACE                  ",77063,29.736948,-95.5324413
251128,117541.94,"THE CHEESECAKE FACTORY OF HOUS",77056,29.739212,-95.4635009
251149,11020,"SUNDOWN SALOON                ",77092,29.807166,-95.4617021
251196,108221.94,"BENJY'S RESTAURANTS           ",77005,29.7195555,-95.4163497
251204,17310.9,"BERRYHILL HOT TAMALES         ",77098,29.7421284,-95.4163957
251208,30417.91,"CATBIRDS                      ",77006,29.7436608,-95.3957524
251216,1337.91,"ARAMARK SPORTS & ENTERTAINMENT",77054,29.7465374,-95.4578618
251236,159851.94,"DAVE & BUSTER'S               ",77057,29.732219,-95.4853042
251256,93124.93,"LOS CUCOS MEXICAN CAFE #2     ",77070,30.0080583,-95.5870787
251264,51147.91,"NICK'S SPORTS BAR & GRILL     ",77042,29.7492528,-95.5726573
251268,145113.88,"MORTON'S OF CHICAGO/HOUSTON   ",77056,29.7414868,-95.4629597
251284,10127.91,"CLAY'S RESTAURANT & HALL      ",77084,29.8307907,-95.669821
251292,14114.93,"RIVA'S ITALIAN RESTAURANT     ",77006,29.7460624,-95.3925299
251316,10944.93,"DEL MAR LANES INC             ",77092,29.8159444,-95.4583292
251367,79445.97,"DEL PUEBLO MEXICAN RESTAURANT ",77070,29.9668051,-95.5853667
251387,22888.96,"NINFA'S MEXICAN CAFE          ",77056,29.739545,-95.462716
251413,0,"SPANKY'S                      ",77087,29.6948864,-95.2987726
251417,74028.96,"CARRABBBA'S ITALIAN GRILL     ",77494,29.7128908,-95.769606
251465,27584.93,"THE HOP                       ",77068,30.0062235,-95.4651587
251473,110861.94,"ARCODORO                      ",77056,29.7414868,-95.4629597
251493,711390.9,"SC BEVERAGE COMPANY           ",77056,29.7612714,-95.4590761
251509,11871.94,"WILLIE'S GRILL & ICEHOUSE     ",77069,29.986273,-95.5002726
251513,66030.9,"R & R SPORTS BAR & GRILL II   ",77546,29.5237017,-95.1488753
251558,13738.96,"CHARLIE'S HOUSE               ",77017,29.692678,-95.278137
251599,15083.88,"DINING AUTHORITY INC          ",77002,29.752554,-95.3704009
251603,38930,"SHOWDOWNS DANCE HALL & SALOON ",77015,29.7911353,-95.1994727
251615,13091.94,"CARINO'S ITALIAN              ",77450,29.7827299,-95.7513535
251627,23934.93,"NINFA'S MEXICAN RESTAURANT    ",77079,29.7700001,-95.6100808
251646,3535.97,"BLUE NILE ETHIOPIAN RESTAURANT",77063,29.7295857,-95.5304751
251650,8554.93,"HARVEST ORGANIC GRILLE        ",77077,29.7360466,-95.5823977
251714,17096.87,"WESTSIDE TENNIS CLUB          ",77042,29.7500609,-95.5743085
251722,63370.9,"GRAPPINO DE NINO              ",77019,29.7569577,-95.395572
251730,64342.99,"CARRABBA'S ITALIAN GRILL      ",77069,29.9725223,-95.5263707
251747,20120,"TEQUILA LOPEZ MEXICAN RESTAURA",77083,29.6912123,-95.6429218
251808,68472.99,"CARRABBA'S ITALIAN GRILL      ",77079,29.7836825,-95.5835298
251823,10292.99,"TECATE MEXICAN RESTAURANT     ",77008,29.8102302,-95.4295915
251839,138261.94,"WILD WEST - HOUSTON           ",77057,29.7311989,-95.4875002
251855,39050,"ZIMM'S                        ",77006,29.7334906,-95.3908619
251965,87300,"RUDYARD'S BRITISH PUB         ",77006,29.7499962,-95.3965483
251969,5951.94,"MO MONG                       ",77006,29.7443789,-95.3933474
251988,23257.91,"WILLIE'S GRILL & ICEHOUSE     ",77095,29.882797,-95.64446
252039,16794.93,"THE CLUB AT DEERWOOD          ",77345,30.0424176,-95.1676438
252059,22910,"LA HACIENDA ESCONDIDA FAMILY M",77008,29.8102323,-95.425623
252087,208143.88,"MARK'S                        ",77006,29.7430911,-95.4016023
252107,45718.96,"THE MELTING POT RESTAURANT    ",77057,29.7389967,-95.4905009
252156,93403.88,"GRILLE 5115                   ",77056,29.7405687,-95.4645585
252167,50975.97,"EMILLIANOS SPORTS BAR         ",77020,29.736416,-95.28557
252187,82070,"THE DAVENPORT                 ",77098,29.73403,-95.4112961
252203,55863.88,"AMAZONIA  DISCOTHEQUE         ",77060,29.9326077,-95.4120631
252208,2346.87,"CAFE RED ONION INC            ",77092,29.8375804,-95.4870831
252212,40728.96,"ARAMARK SPORTS/QUALITY CONCESS",77002,29.761114,-95.3651741
252216,60370.9,"ARAMARK SPORTS AND ENTERTAINME",77010,29.7511598,-95.3578477
252220,121521.94,"ARAMARK SPORTS AND ENTERTAINME",77002,29.763552,-95.36567
252244,35203.88,"OUTBACK STEAKHOUSE            ",77096,29.6866036,-95.4555531
252294,37562.99,"REMINGTON'S BAR & GRILLE      ",77040,29.8422923,-95.4959206
252335,3880.9,"THE BOMBAY BRASSERIE          ",77056,29.7326415,-95.4659064
252339,28013.88,"BERRYHILL HOT TAMALES         ",77056,29.7492628,-95.4597598
252351,205900,"SALC, INC.                    ",77056,29.745883,-95.459844
252355,146560.9,"SALC INC                      ",77002,29.757956,-95.37118
252389,86721.94,"ESCALANTE'S MEXICAN RESTAURANT",77096,29.6699914,-95.4830243
252397,9904.93,"FORNOS OF ITALY               ",77042,29.7362958,-95.5499819
252406,46015.97,"LITTLE PAPPAS SEAFOOD KITCHEN ",77098,29.739077,-95.410317
252421,102312.99,"KINGWOOD COUNTRY CLUB         ",77339,30.0400598,-95.1965988
252429,116073.88,"CADILLAC BAR                  ",77007,29.776523,-95.4090204
252433,7248.96,"SPANISH FLOWERS               ",77009,29.7970336,-95.3819464
252437,119598.96,"221 B BAKER ST PUB & GRILL    ",77005,29.7161658,-95.4153375
252460,38075.97,"OUTBACK STEAKHOUSE            ",77089,29.6043024,-95.2101768
252485,12230.9,"TILA'S RESTAURANTE & BAR, LTD.",77019,29.7556801,-95.4085339
252489,1891.94,"MOGUL INDIAN RESTAURANT       ",77058,29.5737473,-95.1074199
252509,25442.99,"LAS VENTANAS CANTINA          ",77079,29.782289,-95.642581
252521,184515.97,"EL TIEMPO CANTINA             ",77098,29.734319,-95.42559
252547,45280,"SALTGRASS STEAKHOUSE          ",77029,29.770266,-95.226688
252573,198570,"SULLIVANS STEAKHOUSE          ",77027,29.741577,-95.455224
252577,55572.99,"CHACHO'S MEXICAN GRILL        ",77057,29.7381415,-95.4877002
252589,322074.93,"THE REMINGTON GRILL           ",77027,29.747435,-95.450396
252593,18417.91,"DON CARLOS RESTAURANT         ",77012,29.734182,-95.289014
252602,31744.93,"MICHAEL'S OUTPOST             ",77006,29.7343567,-95.3982405
252614,11417.91,"TOKYOHANA GRILL AND SUSHI BAR ",77027,29.7287422,-95.4304521
252618,150724.93,"WILLIE G'S                    ",77056,29.751574,-95.4602671
252626,2632.99,"MANUELS MEXICAN RESTAURANT & T",77346,30.000172,-95.1848911
252639,3865.97,"EVA'S MEXICAN RESTAURANT      ",77068,30.013682,-95.468007
252659,6950,"MARKET SQUARE BAR & GRILL     ",77002,29.7622444,-95.3617143
252675,145078.96,"BRAZOS CONCESSIONS CO.        ",77032,29.9867028,-95.3479921
252679,184285.97,"BRAZOS CONCESSIONS CO HOUSTON ",77032,29.9867028,-95.3479921
252683,324927.91,"BRAZOS CONCESSIONS CO HOUSTON ",77032,29.9867028,-95.3479921
252687,109791.94,"BRAZOS CONCESSIONS CO HOUSTON ",77032,29.9902199,-95.3367827
252691,87351.94,"BRAZOS CONCESSIONS CO HOUSTON ",77032,29.9902199,-95.3367827
252766,57957.91,"HOSPITALITY INTERNATIONAL INC ",77030,29.7100958,-95.4010057
252818,14250,"EL PUEBLITO PLACE             ",77006,29.7340125,-95.3986275
252874,93336.87,"THE VOLCANO                   ",77005,29.7252268,-95.4147551
252897,31857.91,"HOT DOG SHOP                  ",77041,29.8622231,-95.5697627
252921,96830.9,"HOSPITALITY INTERNATIONAL, INC",77032,29.9865191,-95.3416698
252933,45160,"THE RAVEN GRILL               ",77005,29.725948,-95.4061914
252941,24247.91,"HOUSTON CENTER CLUB           ",77002,29.752554,-95.3704009
253005,30622.99,"BOUDREAUX'S CAJUN KITCHEN     ",77081,29.7229371,-95.4586728
253024,165538.96,"HOSPITALITY INTERNATIONAL INC ",77056,29.7411784,-95.4665951
253040,22174.93,"MASSA'S SEAFOOD GRILL         ",77010,29.754491,-95.362643
253059,63610,"THE COVER GIRLS               ",77041,29.867926,-95.55437
253087,34598.96,"LOS CUCOS MEXICAN CAFE        ",77092,29.8140641,-95.4619157
253095,20184.93,"PREMIER HOSPITALITY, INC.     ",77058,29.5518207,-95.0981554
253115,50375.97,"HOSPITALITY INTERNATIONAL INC ",77027,29.7495487,-95.456936
253163,5773.88,"HOSPITALITY INTERNATIONAL INC ",77017,29.6556028,-95.2549166
253171,0,"PREMIER HOSPITALITY, INC.     ",77004,29.7223208,-95.3597409
253175,18644.93,"IRMA'S SOUTHWEST GRILL        ",77002,29.7576198,-95.3596559
253216,77874.93,"MASRAFF'S ON POST OAK LANE    ",77056,29.7571886,-95.4626169
253239,164161.94,"RITZ HOUSTON                  ",77034,29.6397998,-95.2430534
253254,33113.88,"HOSPITALITY INTERNANTIONAL INC",77030,29.7056712,-95.3957091
253271,2434.93,"CABANA BEVERAGES INC          ",77084,29.8756574,-95.6447773
253279,3916.87,"CABANA BEVERAGES INC          ",77037,29.9164903,-95.4137057
253287,23105.97,"CHILOS SEAFOOD RESTAURANT     ",77017,29.6763954,-95.2691667
253299,23345.97,"WILLIE'S GRILL & ICEHOUSE     ",77070,29.9825564,-95.5678509
253313,15604.93,"BEAMER'S PLACE                ",77089,29.5951271,-95.2256931
253329,21258.96,"LOGAN'S ROADHOUSE             ",77040,29.8453514,-95.4976261
253471,30004.93,"THIRD BASE                    ",77062,29.5572402,-95.1243762
253479,11671.94,"TAMPICO SEAFOOD & COMIDA MEXIC",77009,29.8066438,-95.3821981
253511,353938.96,"THE ST JAMES RESTAURANT & CABA",77073,29.9666029,-95.4079268
253523,90150.9,"CRAZY FROGS SALOON            ",77064,29.960105,-95.5438517
253531,57074.93,"THE HARP                      ",77006,29.734099,-95.400653
253622,171170.9,"SHERLOCK'S BAKER ST PUB-CLEAR ",77058,29.5737473,-95.1074199
253630,8886.87,"LOS PEREZ MEXICAN RESTAURANT  ",77083,29.7036472,-95.6429517
253642,14991.94,"LA CABANA MEXICAN RESTAURANT  ",77338,30.018866,-95.375749
253674,26575.97,"CELLAR BAR                    ",77062,29.556072,-95.122886
253678,10235.97,"JUAREZ MEXICAN RESTURANT      ",77080,29.817966,-95.545584
253764,19492.99,"CASA IMPERIAL MEXICAN RESTAURA",77070,29.9335263,-95.5838927
253773,255780.9,"MICHAEL'S INTERNATIONAL       ",77074,29.719682,-95.497359
253805,2385.97,"CARLOS MEXICAN RESTAURANT     ",77039,29.902454,-95.3374715
253845,168600,"THE SPLENDOR                  ",77064,29.9533915,-95.5415404
253849,29316.87,"510 BAR #2                    ",77040,29.8820149,-95.5250951
253872,232868.96,"FOGO DE CHAO                  ",77063,29.7381232,-95.511914
253876,53437.91,"SHERATON SUITES RESTAURANT    ",77027,29.7423304,-95.4585841
253894,2888.96,"HOME PLATE BAR & GRILL        ",77003,29.755501,-95.3555056
253910,288167.91,"MAGGIANO' LITTLE ITALY        ",77056,29.7451544,-95.4602834
253926,77070.9,"FAST EDDIE'S NEIGHBORHOOD BILL",77034,29.6179085,-95.2202388
253943,36004.93,"TEXAS LAND & CATTLE STEAK HOUS",77079,29.783812,-95.6047666
253961,27973.88,"CHILIS GRILL & BAR            ",77057,29.73726,-95.4902898
253996,65403.88,"9 AMIGOS/CRAWFORD STREET CAFE/",77002,29.7561931,-95.3556745
254004,10590.9,"LOS VEGA MEXICAN RESTAURANT   ",77346,29.9983336,-95.171772
254032,126847.91,"GOODE COMPANY SEAFOOD         ",77024,29.7829105,-95.5484119
254044,17830,"IRMA'S                        ",77002,29.7602196,-95.352207
254059,210804.93,"THE FLYING SAUCER DRAUGHT EMPO",77002,29.7588934,-95.3631059
254082,58831.94,"THE CONTINENTAL CLUB          ",77002,29.7385682,-95.3799289
254086,27080.9,"MULDOON'S                     ",77057,29.7390757,-95.4822122
254090,207972.99,"THE CAPITAL GRILLE            ",77056,29.7390814,-95.4696126
254094,5976.87,"SKEETER'S                     ",77339,30.0660336,-95.1889663
254106,67887.91,"TROPICANA NITE CLUB           ",77063,29.7295179,-95.5212069
254121,40161.94,"MOULIN ROUGE                  ",77017,29.6701553,-95.2563011
254137,1787.91,"ART OF THE SPIRITS INC        ",77005,29.7252493,-95.3894435
254141,12008.96,"LOGAN'S ROADHOUSE             ",77077,29.7417161,-95.644966
254149,22035.97,"RAGIN CAJUN                   ",77063,29.7375614,-95.5373697
254153,35096.87,"TEXAS LAND & CATTLE STEAK HOUS",77070,29.9606959,-95.5473985
254169,199520.9,"IBIZA FOOD & WINE BAR         ",77006,29.7474697,-95.3769031
254188,24172.99,"THE SPAGHETTI WESTERN ITALIAN ",77007,29.7749992,-95.4093611
254195,77910.9,"CAFE ADOBE                    ",77024,29.7857878,-95.4647994
254211,32261.94,"BOUDREAUX'S CAJUN KITCHEN     ",77087,29.7003675,-95.2967196
254258,113384.93,"FRONT PORCH PUB               ",77002,29.7526438,-95.3774935
254269,56864.93,"FAST EDDIES                   ",77069,29.984275,-95.506379
254282,25596.87,"MUGSY'S ON RICHMOND           ",77098,29.7339811,-95.4146429
254286,63908.96,"BARNEY'S BILLIARD SALOON NO 20",77017,29.6720502,-95.2638749
254305,7167.91,"MACAYO'S MEXICAN RESTAURANT & ",77375,30.0628793,-95.5005887
254357,86258.96,"LITTLE GRINGO'S KITCHEN INC.  ",77034,29.6183804,-95.2191417
254422,101767.91,"PAPPASITO'S CANTINA           ",77040,29.8464766,-95.4989367
254434,231822.99,"PAPPASITO'S CANTINA           ",77024,29.7833165,-95.5550769
254441,0,"CAFE PAPPADEAUX               ",77090,30.0080047,-95.4621282
254445,2680.9,"CABANA BEVERAGE INC           ",77015,29.7712777,-95.1839324
254453,24040,"TEXAS LAND & CATTLE STEAK HOUS",77089,29.6068585,-95.2102721
254458,50220.9,"BUCA DE BEPPO                 ",77005,29.7269492,-95.42832
254503,29053.88,"DON CARLOS MEXICAN RESTAURANT ",77074,29.717665,-95.4969069
254540,25385.97,"OSTIONERIA LAS ROCAS          ",77076,29.8667794,-95.3843899
254552,195310,"PAPPASITO'S CANTINA           ",77054,29.6767657,-95.4155783
254556,80315.97,"ROYAL OAKS COUNTRY CLUB       ",77082,29.7291851,-95.5855608
254574,45026.87,"LOS TIOS MEXICAN RESTAURANT   ",77096,29.689616,-95.4618753
254578,28482.99,"LOS TIOS MEXICAN REATAURANT   ",77063,29.7362315,-95.5341587
254582,41911.94,"LOS TIOS MEXICAN RESTAURANT   ",77079,29.7712163,-95.5898715
254601,48882.99,"SALTGRASS STEAKHOUSE          ",77007,29.7765744,-95.4098251
254621,5090.9,"HOSPITALITY INTERNATIONAL INC ",77070,29.9971972,-95.5830253
254633,45875.97,"RAGIN CAJUN                   ",77027,29.732834,-95.449082
254687,115793.88,"A  FARE EXTRAORDINAIRE        ",77098,29.7390018,-95.4096943
254691,19063.88,"SYLVIA'S ENCHILADA KITCHEN    ",77077,29.7451163,-95.6195112
254707,12498.96,"EL DORADO MEXICAN RESTAURANT  ",77062,29.5778309,-95.1217027
254719,4292.99,"MANUEL'S MEXICAN RESTAURANT   ",77041,29.8799957,-95.5942853
254723,54360.9,"GUAVA LAMP                    ",77019,29.7598784,-95.3988196
254747,70690,"TEXAS ROADHOUSE               ",77065,29.916773,-95.6154562
254755,31562.99,"BISTRO LE CEP                 ",77042,29.7373943,-95.573042
254759,9462.99,"EL RINCO MEXICAN RESTAURANT   ",77379,30.0073124,-95.5477039
254763,63470,"KELVIN ARMS                   ",77005,29.7195555,-95.4163497
254775,77186.87,"CAPITOL BEVERAGE              ",77006,29.744021,-95.401847
254802,186908.96,"GATEWAY BEVERAGES, INC.       ",77056,29.7378238,-95.46261
254806,140953.88,"GATEWAY BEVERAGES, INC.       ",77056,29.7397571,-95.463376
254810,10971.94,"PUERTO ALEGRE                 ",77029,29.753179,-95.283238
254814,24342.99,"BAYOU CITY SEAFOOD & PASTA    ",77027,29.7326286,-95.4570514
254826,11591.94,"RUTHIE'S MEXICANA             ",77494,29.7606178,-95.7746818
254842,6762.99,"CASA OLE RESTAURANT & CANTINA ",77084,29.8624923,-95.6450929
254878,67624.93,"HOUSTON DOLLS CABARET         ",77073,29.9664661,-95.4159269
254909,191827.91,"PAPPADEAUX SEAFOOD KITCHEN    ",77024,29.7833246,-95.5562375
254913,210687.91,"PAPPADEAUX SEAFOOD KITCHEN    ",77054,29.6767058,-95.4165456
254980,13270,"KUBO'S                        ",77005,29.7150828,-95.415202
254996,29020,"PIATTO RISTORANTE             ",77056,29.7377779,-95.4598508
255051,43042.99,"BRAZOS                        ",77002,29.7536894,-95.3728237
255067,18573.88,"TUMBLEWEED RESTAURANT AND DANC",77090,29.975812,-95.432429
255075,45054.93,"GLAMOUR GIRLS CABARET         ",77040,29.858957,-95.539102
255102,1187.91,"CHIPOTLE MEXICAN GRILL        ",77070,29.964328,-95.543602
255109,102700.9,"PAPPADEAUX SEAFOOD KITCHEN #2 ",77040,29.8468463,-95.4996535
255113,2685.97,"CHIPOTLE CHIPOTLE MEXICAN GRIL",77030,29.7097317,-95.4011509
255130,48303.88,"PAPPAS SEAFOOD HOUSE & OYSTER ",77087,29.7046889,-95.2986419
255134,122780.9,"HACIENDA GUADALAJARA          ",77024,29.7834111,-95.5347576
255151,9950,"WESTWIND                      ",77040,29.8523952,-95.516203
255159,51155.97,"YIA YIA MARYS                 ",77056,29.7480227,-95.4575988
255198,51921.94,"LYNN'S STEAKHOUSE             ",77079,29.7774978,-95.6069818
255206,125644.93,"LITTLE PAPPASITO'S CANTINA    ",77098,29.734403,-95.417705
255218,64733.88,"HURACAN BALLROOM              ",77037,29.9216612,-95.4102925
255222,5804.93,"LOS CAPORALES MEXICAN RESTAURA",77070,29.9914563,-95.5764359
255230,60034.93,"THE STAG'S HEAD RESTAURANT    ",77098,29.7336532,-95.4117094
255238,21472.99,"DOGGETT'S                     ",77073,30.0246893,-95.3937424
255246,56083.88,"TEOTIHUACAN MEXICAN CAFE #2   ",77009,29.7990045,-95.3821812
255264,35944.93,"THE DERRICK TAVERN            ",77077,29.7674534,-95.6232776
255268,0,"THE TROPHY CLUB GENTLEMEN'S RE",77067,29.965817,-95.435391
255300,26252.99,"THE BACKYARD GRILL            ",77065,29.9092631,-95.5859492
255304,22226.87,"AMAZON GRILL                  ",77098,29.726636,-95.419039
255312,86037.91,"CHURRASCOS RESTAURANT         ",77098,29.7424338,-95.4090874
255324,0,"PAPPAS SEAFOOD HOUSE AND OYSTE",77074,29.7109717,-95.5062217
255335,105443.88,"PAPPADEAUX SEAFOOD KITCHEN    ",77098,29.734771,-95.416464
255372,74988.96,"EL PATIO MEXICAN RESTAURANT   ",77057,29.7382473,-95.497653
255385,153831.94,"MCCORMICK & SCHMICK RESTAURANT",77056,29.7545963,-95.4571393
255393,15660,"QIN DYNASTY                   ",77005,29.7280606,-95.4272338
255425,4933.88,"IMPERIAL BANQUET HALL         ",77093,29.8590366,-95.3396887
255470,479930,"ESCAPADE 2001                 ",77039,29.8967701,-95.3186235
255474,32050.9,"CHARBAR                       ",77002,29.762433,-95.361619
255498,93460.9,"BRIAN O'NEILL'S RESTAURANT & P",77005,29.7161845,-95.4146333
255502,9463.88,"INDIA'S RESTAURANT            ",77057,29.7321678,-95.478897
255506,1814.93,"INFINITIVE CLASSIC            ",77016,29.8402897,-95.3186039
255514,13778.96,"CHATEAU BEVERAGE SERVICES, L.L",77070,29.9641476,-95.5489878
255526,1584.93,"CHIPOTLE CHIPOTLE MEXICAN GRIL",77056,29.7320834,-95.466327
255533,50865.97,"TEXAS ROADHOUSE-FRIENDSWOOD   ",77546,29.554046,-95.1561864
255549,3297.91,"ANTONIO'S MEXICAN GRILLE      ",77025,29.7060006,-95.4266423
255584,9773.88,"PAPPAS BURGER                 ",77057,29.737605,-95.4811543
255592,2954.93,"THE MET BUSINESS AND SPORTS CL",77002,29.7575,-95.3704
255604,76075.97,"TONYS CORNER POCKET           ",77019,29.7575504,-95.3768247
255639,49261.94,"CHEDDAR'S WESTCHASE           ",77042,29.7218454,-95.5585982
255697,8920.9,"GARDEN ABC CORPORATION        ",77032,29.941928,-95.3304486
255737,37948.96,"RIPCORD                       ",77006,29.7480057,-95.3895085
255745,90168.96,"BIRRAPORETTI'S                ",77002,29.7623462,-95.3649722
255757,136934.93,"MOCKINGBIRD BISTRO WINE BAR   ",77019,29.7479216,-95.4077136
255773,81345.97,"LE MISTRAL LTD                ",77077,29.7599956,-95.6263503
255805,5587.91,"HOLIDAY INN EXPRESS           ",77070,29.9697218,-95.5582678
255809,29502.99,"SHILO CLUB                    ",77008,29.7953041,-95.3881731
255813,9995.97,"TAYLORS OF HOUSTON            ",77045,29.634997,-95.46432
255825,48331.94,"GRIFF'S SHENANIGANS CAFE      ",77006,29.7403717,-95.3899206
255853,130173.88,"ESCALANTE'S                   ",77024,29.7758786,-95.56097
255857,25662.99,"SHAMROCK INN                  ",77074,29.6809236,-95.5284146
255881,53544.93,"VELVET MELVIN PUB             ",77098,29.733767,-95.426545
255929,169653.88,"CHURRASCOS RESTAURANT         ",77042,29.7365147,-95.5397889
255933,19386.87,"ROCKFISH SEAFOOD GRILL        ",77069,29.9724742,-95.5264568
255937,33836.87,"THE FISH                      ",77019,29.7534252,-95.3862017
255949,24150.9,"CHILIS #1106 HOUSTON          ",77077,29.744179,-95.6452226
255981,69241.94,"KOMODO'S                      ",77002,29.7531058,-95.3772272
256027,93120,"THE FIRST TEE                 ",77077,29.7457925,-95.6053031
256138,24287.91,"BOUDREAUX'S CAJUN KITCHEN     ",77064,29.9568888,-95.5436769
256161,14040.9,"ROCKFISH SEAFOOD GRILL        ",77077,29.7360613,-95.5860746
256184,1204.93,"CHIPOLTE CHIPOLTE MEXICAN GRIL",77084,29.7876622,-95.7183738
256192,212226.87,"DOWNTOWN AQUARIUM             ",77002,29.764196,-95.36745
256196,20860,"TAQUERIA TEPATITLAN NO 11 INC ",77056,29.725213,-95.475296
256200,1013.88,"CHIPOTLE CHIPOTLE MEXICAN GRIL",77077,29.7352386,-95.585518
256274,29460,"INDIKA                        ",77006,29.744766,-95.387888
256281,19932.99,"EL RANCHO MEXICAN RESTAURANT  ",77094,29.7859146,-95.6862924
256293,768.96,"CHIPOTLE CHIPOTLE MEXICAN GRIL",77040,29.8538683,-95.5129173
256309,8000,"TIO CHUCHO MEXICAN RESTAURANT ",77084,29.8626916,-95.6450952
256317,159856.87,"DAILY GRILL                   ",77056,29.7405522,-95.4629513
256395,53260.9,"DOUBLETREE BY HILTON HOUSTON H",77061,29.6587012,-95.2686988
256435,890170,"ARAMARK SPORTS & ENTERTAINMENT",77054,29.6904016,-95.4125045
256495,22084.93,"CLUB MAX                      ",77055,29.8200358,-95.4992002
256523,0,"BRAVOS MEXICAN RESTAURANT #4  ",77092,29.8395085,-95.4893674
256527,24488.96,"MARIA SELMA RESTAURANT        ",77006,29.7343374,-95.4003114
256551,8876.87,"DIAMOND CLUB CABARET          ",77098,29.7343856,-95.4259493
256555,60243.88,"SHAY MCELROY'S IRISH PUB      ",77002,29.7605731,-95.3626966
256559,16960,"WILLIE'S GRILL & ICEHOUSE     ",77094,29.783929,-95.71628
256591,27276.87,"KIM SON RESTAURANT            ",77003,29.7458523,-95.3602462
256656,133430,"STEREO LIVE                   ",77057,29.732318,-95.498507
256660,203057.91,"FLEMINGS PRIME STEAKHOUSE & WI",77098,29.7381606,-95.4165377
256668,6415.97,"CAFE CASPIAN/LE VIRAGE        ",77077,29.7375148,-95.5941439
256676,19635.97,"CARINO'S ITALIAN              ",77065,29.916102,-95.614412
256715,6114.93,"SUPER STAR CLUB               ",77051,29.673432,-95.367352
256728,9776.87,"CARINO'S ITALIAN              ",77049,29.8108463,-95.1636344
256764,19608.96,"DESERT ROSE RESTAURANT/POQUITO",77074,29.7147237,-95.5027737
256797,17437.91,"WILDCAT GOLF CLUB             ",77045,29.648482,-95.4165496
256852,126348.96,"CITY KITCHEN L L C            ",77061,29.6592971,-95.2703037
256869,1348.96,"CABANA BEVERAGES INC          ",77346,29.9987204,-95.166648
256889,43795.97,"THE ORIGINAL RED ROOSTER      ",77021,29.7083862,-95.33523
256893,162375.97,"CHULAS SPORTS CANTINA         ",77090,29.9854596,-95.4234386
256901,41641.94,"HEARTHSTONE COUNTRY CLUB      ",77095,29.887722,-95.6295275
256909,74162.99,"SALTGRASS STEAKHOUSE #16      ",77450,29.7832643,-95.7498115
256920,514815.97,"VIC & ANTHONY'S STEAKHOUSE    ",77002,29.7572882,-95.3581854
256944,150126.87,"BRENNER'S STEAKHOUSE          ",77079,29.7838281,-95.5708351
256956,17724.93,"CLUB RUMBA                    ",77075,29.6211025,-95.2632201
256964,49920,"EL JARRITO RESTAURANT         ",77450,29.7591926,-95.7484318
256972,83105.97,"P F CHANG'S CHINA BISTRO INC  ",77027,29.7424136,-95.447323
256976,46294.93,"P F CHANG'S CHINA BISTRO      ",77077,29.735978,-95.5832999
257012,145032.99,"MAGNOLIA SPIRITS HOUSTON INC  ",77002,29.7590664,-95.3616074
257016,75421.94,"SALTGRASS STEAKHOUSE #15      ",77064,29.9550177,-95.5420904
257032,35311.94,"PASTA LOMONTE'S INC           ",77079,29.782748,-95.642466
257048,268185.97,"ARTISTA                       ",77002,29.7616498,-95.3692129
257068,728.96,"CHIPOTLE MEXICAN GRILL        ",77002,29.7605731,-95.3626966
257088,14088.96,"LOS RAMIREZ MEXICAN RESTAURANT",77062,29.555914,-95.121836
257108,738.96,"CHIPOTLE;CHIPOTLE MEXICAN GRIL",77065,29.9158626,-95.6165062
257150,23407.91,"BOUDREAUX'S CAJUN KITCHEN     ",77034,29.6132669,-95.2134727
257158,19516.87,"BERRYHILL BAJA GRILL          ",77006,29.7421823,-95.3905368
257162,89646.87,"WYNDHAM GREENSPOINT           ",77060,29.9466193,-95.4073298
257174,49980,"BABIN'S SEAFOOD HOUSE         ",77064,29.9551693,-95.5444344
257178,648333.88,"FOUR FAMILIES OF HOUSTON      ",77061,29.6455556,-95.3219037
257182,47432.99,"GENJI                         ",77042,29.7368383,-95.5732308
257190,34058.96,"CHILLI'S HAMBURGER GRILL & BAR",77042,29.7362958,-95.5499819
257231,43268.96,"THE HOUSTON CITY CLUB         ",77046,29.7317719,-95.4352599
257275,43188.96,"SALTGRASS STEAKHOUSE #2       ",77074,29.68402,-95.5347768
257279,103106.87,"THE RED DOOR                  ",77006,29.7492244,-95.3784277
257283,60282.99,"SALTGRASS STEAKHOUSE          ",77090,29.9871254,-95.4244768
257291,1986.87,"BLACK-EYED PEA                ",77092,29.8171557,-95.4672578
257299,2151.94,"BLACK-EYED PEA                ",77450,29.778467,-95.752311
257303,2032.99,"BLACK-EYED PEA                ",77065,29.9306273,-95.5849294
257311,2032.99,"BLACK-EYED PEA                ",77089,29.614737,-95.2183189
257319,2802.99,"BLACK-EYED PEA                ",77042,29.7351303,-95.5712348
257342,1510.9,"BLACK-EYED PEA                ",77090,30.0090318,-95.459244
257350,35705.97,"AL'S SPORTS BAR               ",77082,29.7197355,-95.6707137
257354,4640,"BLACK-EYED PEA                ",77025,29.7054294,-95.4458197
257358,30930.9,"WESTCHASE TAVERN              ",77042,29.7369557,-95.5637227
257413,33932.99,"BERRYHILL IN THE HEIGHTS      ",77008,29.7905435,-95.3897947
257480,124575.97,"DONERAKI RESTAURANTE MEXICANO ",77087,29.6994527,-95.2941202
257484,41284.93,"SLICK WILLIES FAMILY POOL HALL",77090,29.9891982,-95.4259533
257500,70835.97,"SALTGRASS STEAKHOUSE          ",77096,29.6861511,-95.4598843
257504,9304.93,"ROMAN DELIGHT PIZZA/NINFA EXPR",77056,29.737432,-95.463447
257520,78633.88,"BABIN'S SEAFOOD HOUSE         ",77450,29.7834673,-95.7494805
257528,271330,"DRINK HOUSTON                 ",77024,29.7857878,-95.4647994
257548,0,"ROEDERS PUB                   ",77098,29.7381071,-95.4109635
257600,9810.9,"DON PATRON BAR & GRILL        ",77002,29.7576147,-95.3703659
257620,29805.97,"ROMERO'S LAS BRAZAS           ",77095,29.8908115,-95.6426212
257640,40157.91,"PAPA'S                        ",77380,30.1157745,-95.4543079
257658,37680.9,"PAPPASITOS CANTINA            ",77032,30.6123928,-96.3402214
257662,179321.94,"PAPPADEAUX SEAFOOD KITCHEN    ",77032,29.987366,-95.3337998
257721,78031.94,"THE BULL & BEAR               ",77077,29.7374992,-95.5913516
257728,97281.94,"BASIL'S KITCHEN / BASIL'S TAVE",77032,29.945363,-95.3306289
257758,23260.9,"BABILONIA                     ",77081,29.714531,-95.495894
257800,4193.88,"ZAKE JAPANESE RESTAURANT      ",77098,29.7387124,-95.4112763
257804,3166.87,"PREMIER HOSPITALITY, INC.     ",77042,29.7448894,-95.560991
257832,90553.88,"LA TAPATIA TAQUERIA           ",77098,29.7339989,-95.4041219
257843,228428.96,"BAKER ST PUB & GRILL          ",77064,29.9550592,-95.5429366
257848,5788.96,"MANGO'S CANTINA               ",77006,29.744302,-95.386131
257855,1606.87,"CASAREZ MEXICAN RESTAURANT/CAS",77034,29.645436,-95.2346
257906,1456677.91,"LEVY RESTAURANTS AT TOYOTA CEN",77002,29.7507975,-95.3622723
257996,0,"CLUB DIVUS                    ",77067,29.9442299,-95.4343516
258028,138484.93,"PHM BEVERAGE INC              ",77042,29.734365,-95.550199
258064,11011.94,"PAUL'S SEAFOOD & OYSTER BAR   ",77077,29.7530119,-95.6448894
258087,51681.94,"LOS CUCOS MEXICAN CAFE        ",77084,29.8368074,-95.6484361
258091,22155.97,"EL PALENQUE MEXICAN RESTAURANT",77042,29.7363258,-95.5672732
258126,101786.87,"RED LION                      ",77019,29.7456059,-95.4109756
258130,10634.93,"RED ROBIN RESTAURANT          ",77042,29.727534,-95.5592383
258134,84382.99,"HENRY HUDSON'S PUB            ",77065,29.9169574,-95.6155595
258162,14422.99,"SANTA FE FLATS                ",77070,30.0001952,-95.5810037
258223,120312.99,"BJ'S RESTAURANT & BREWHOUSE   ",77070,29.9638133,-95.5431895
258283,914605.97,"HILTON AMERICAS - HOUSTON     ",77010,29.7515962,-95.360228
258295,98030.9,"UPTOWN SUSHI                  ",77056,29.7558795,-95.456355
258300,6095.97,"POLONIA RESTAURANT            ",77080,29.8075102,-95.5237419
258304,41277.91,"OUTBACK STEAKHOUSE            ",77095,29.882053,-95.645286
258308,6600,"HACIENDA SAN ANGEL            ",77041,29.8664783,-95.6076349
258312,29196.87,"RED FISH GRILL                ",77070,29.978848,-95.5657316
258329,572.99,"CHIPOTLE MEXICAN GRILL CHIPOTL",77019,29.7471557,-95.4102848
258384,22068.96,"BYZANTIO CAFE BAR             ",77019,29.753147,-95.386706
258396,358037.91,"WOLLENSKY BEVERAGE INC        ",77027,29.7411122,-95.4457005
258407,71005.97,"INN AT THE BALLPARK           ",77027,29.740582,-95.4515725
258411,7890.9,"LAS PALMAS RESTAURANT #2      ",77095,29.8797717,-95.6025894
258431,15243.88,"CHAPULTEPEC LUPITA MEXICAN RES",77006,29.7342687,-95.3893671
258435,21422.99,"RUDYS MEXICAN GRILL           ",77429,29.9744913,-95.5997168
258459,106657.91,"IMPROV COMEDY CLUB & RESTAURAN",77024,29.7857878,-95.4647994
258463,281.94,"ASIANA GARDEN INC             ",77060,29.9512168,-95.4083797
258467,7290,"MANUEL'S MEXICAN RESTAURANT   ",77044,29.9247121,-95.1885172
258486,81530.9,"HOST SERVICES INC             ",77032,30.6123928,-96.3402214
258522,17815.97,"EMPIRE CAFE                   ",77098,29.7428851,-95.4035421
258546,80175.97,"SLICK WILLES'S FAMILY POOL HAL",77057,29.7373721,-95.4857484
258562,18170,"TAQUERIA TEPATITLAN NO 15 INC ",77031,29.6536801,-95.5656364
258590,6970.9,"HIDO JAPANESE GRILL & SUSHI   ",77064,29.9914563,-95.5764359
258667,151061.94,"GROTTO RISTORANTE             ",77027,29.7405734,-95.4567455
258678,194994.93,"LAGRIGLIA                     ",77019,29.753521,-95.4086802
258705,2760.9,"CABANA BEVERAGES INC          ",77041,29.8314993,-95.5647836
258729,41814.93,"BAYOU CITY WINGS              ",77034,29.6144225,-95.215477
258733,7763.88,"100% TAQUITO CO               ",77027,29.728734,-95.430945
258775,72516.87,"CARRABBA'S ITALIAN GRILL      ",77095,29.8879703,-95.6425461
258848,8392.99,"BARCENAS MEXICAN RESTAURANT   ",77075,29.6207923,-95.2944237
258856,34638.96,"CANYON CAFE                   ",77056,29.7414868,-95.4629597
258860,0,"DENIS SEAFOOD HOUSE / 024 JAZZ",77024,29.7832385,-95.5341121
258888,25550,"DARKHORSE TAVERN              ",77007,29.7679194,-95.3808833
258935,5688.96,"CHAPALA MEXICAN RESTAURANT    ",77065,29.9295578,-95.5848997
258983,8605.97,"EL CHARRO MEXICAN RESTAURANT C",77345,30.0496319,-95.1819643
258991,249614.93,"EL TIEMPO CANTINA             ",77007,29.771023,-95.418788
258998,19172.99,"LAS AZTECAS BROTHERS, INC.    ",77373,30.0433388,-95.3454883
259018,11174.93,"GINZA JAPANESE RESTAURANT     ",77057,29.7500317,-95.4848219
259034,60460.9,"OLDE CITY PUB                 ",77069,29.991033,-95.4998246
259178,16000,"MARCO'S MEXICAN BAR & GRILL   ",77054,29.6914658,-95.4131492
259186,11310.9,"LA TAPATIA MEXICAN CAFE       ",77034,29.6497561,-95.2505863
259206,22076.87,"FRENCH QUARTER MARKET & GRILL ",77095,29.882516,-95.645271
259258,101955.97,"POISON GIRL                   ",77006,29.742547,-95.401092
259289,74553.88,"THAI STICKS RESTAURANT AND BAR",77006,29.7335654,-95.390868
259340,17321.94,"MARIO'S MEXICAN RESTAURANT    ",77386,30.1029916,-95.3794694
259372,8793.88,"TWO AMIGOS RESTAURANT         ",77040,29.8591602,-95.5238888
259380,12583.88,"DON JOSE MEXICAN RESTAURANT   ",77091,29.8413134,-95.4732914
259384,82473.88,"A TONY'S MEXICAN RESTAURANT & ",77008,29.806118,-95.4286429
259388,42752.99,"THE CELLAR BAR                ",77098,29.7343764,-95.426065
259400,5030,"HAPPY BUDDHA JAPANESE STEAK HO",77068,29.9912573,-95.4923818
259496,20341.94,"LA TAPATIA MEXICAN CAFE       ",77081,29.7058889,-95.4817878
259517,38873.88,"CLUB 2020                     ",77003,29.746657,-95.359401
259530,30870.9,"CYPRESS LOUNGE                ",77065,29.947023,-95.618709
259538,0,"PREMIER HOSPITALITY, INC.     ",77056,29.7496987,-95.4720715
259562,21771.94,"SUSHI KING                    ",77098,29.7351569,-95.418395
259630,79688.96,"RIO RANCH RESTAURANT/RIO RANCH",77042,29.7363509,-95.5476204
259654,37365.97,"LA CHATTE                     ",77015,29.774158,-95.18774
259674,2988.96,"MATSUSAKA SUSHI & GRILL       ",77077,29.7370602,-95.5799354
259705,28921.94,"THE FOUNTAINHEAD              ",77090,30.014417,-95.4507542
259709,130146.87,"GRAND LUX CAFE                ",77056,29.7414868,-95.4629597
259722,1760,"YAK SOK                       ",77055,29.7976014,-95.5251318
259726,23172.99,"AZUMA/RICE                    ",77002,29.7605731,-95.3626966
259756,0,"HASTA LA PASTA                ",77346,29.965394,-95.1687772
259760,347425.97,"TONY'S                        ",77046,29.7320443,-95.4355254
259794,21328.96,"LAST CONCERT CAFE             ",77002,29.7683061,-95.3531184
259806,14472.99,"EL JALAPENO CAFE              ",77346,30.000172,-95.1848911
259822,321890.9,"PUBFICTION                    ",77006,29.7490045,-95.3759901
259834,102237.91,"POST OAK GRILL                ",77056,29.7537197,-95.4624452
259861,24055.97,"PIATTO RISTORANTE             ",77077,29.7914816,-95.3878734
259880,17793.88,"VIETOPIA VIETNAMESE CUISINE   ",77005,29.7268096,-95.4290879
259888,89737.91,"ANTICA RESTAURANT             ",77005,29.7253249,-95.4132874
259975,64911.94,"METEOR                        ",77006,29.7485857,-95.3842032
259979,11654.93,"TEOTIHUACAN MEXICAN RESTAURANT",77035,29.6559361,-95.5071246
259983,9286.87,"LA FIESTA MEXICAN RESTAURANT  ",77079,29.7831379,-95.5893379
259987,46642.99,"J T'S SPORTS BAR              ",77346,30.0039155,-95.1521826
259999,36957.91,"ASHTON GARDENS                ",77073,30.0315961,-95.4098422
260014,81454.93,"THE ARMADILLO PALACE          ",77098,29.727393,-95.418325
260020,73737.91,"PAPARRUCHOS MEXICAN RESTAURANT",77056,29.735126,-95.466121
260024,9657.91,"YAO RESTAURANT AND BAR LP     ",77042,29.7360925,-95.5406035
260044,23798.96,"LAS MANANITAS RESTAURANT INC  ",77450,29.7712529,-95.7516166
260060,42470.9,"LEGS CABARET                  ",77017,29.676739,-95.2679409
260064,19618.96,"WINGS PIZZA N THINGS RESTAURAN",77086,29.9160033,-95.4876154
260084,278451.94,"DAVE & BUSTER'S               ",77024,29.7857878,-95.4647994
260116,7600,"ASHIANA INDIAN RESTAURANT     ",77077,29.7542909,-95.6066764
260128,63811.94,"SLICK WILLIE'S FAMILY POOL HAL",77449,29.7869271,-95.733802
260143,54364.93,"MI RANCHO MEXICAN GRILL & BAR ",77379,30.0737643,-95.497423
260147,0,"THE OWL                       ",77098,29.7360448,-95.4192312
260167,34614.93,"THE MEZZANINE LOUNGE          ",77098,29.7316325,-95.4136362
260227,123421.94,"SORRENTO RISTORANTE ITALIANO  ",77006,29.7442593,-95.3869036
260231,39100,"OLYMPUS NITE CLUB             ",77017,29.6695677,-95.2535624
260247,22380,"GOL BAR                       ",77036,29.6907165,-95.5502474
260255,42522.99,"GABBY'S                       ",77087,29.6948953,-95.2995015
260275,62750,"CHRISTIAN'S TAILGATE BAR & GRI",77002,29.752561,-95.376624
260279,34447.91,"CHATEAU POLONEZ               ",77070,29.993191,-95.611475
260298,57066.87,"SAGE 400 JAPANESE CUISINE     ",77056,29.7373217,-95.4678042
260345,30662.99,"MIKE'S ULTIMATE SPORTS BAR & G",77095,29.9046155,-95.6326126
260392,51680.9,"TIMES SQUARE ENTERTAINMENT    ",77494,29.7768544,-95.7798359
260412,15008.96,"LA VILLA MEXICAN RESTAURANT   ",77346,30.0027835,-95.1540748
260464,3838.96,"OSTIONERIA 7 MARES SEAFOOD & C",77009,29.801912,-95.360718
260468,900,"KICKS INDOOR SOCCER           ",77007,29.76786,-95.410017
260513,63170,"KIRAN'S RESTAURANT            ",77027,29.7422507,-95.4490131
260644,42884.93,"CAFE BENEDICTE                ",77079,29.77944,-95.6279969
260680,87510.9,"CYCLONE ANAYA'S MEXICAN KITCHE",77008,29.7757947,-95.4103623
260700,18484.93,"LOS CUCOS MEXICAN CAFE        ",77070,29.9618733,-95.5378023
260727,9757.91,"CASA IMPERIAL MEXICAN RESTAURA",77380,30.1261952,-95.4672962
260762,0,"ARAMARK SPORTS AND ENTERTAINME",77002,29.762651,-95.3599103
260778,70398.96,"STEAMBOAT HOUSE               ",77064,29.9293537,-95.5421768
260786,22781.94,"HARLOW'S                      ",77027,29.731214,-95.4409199
260794,47725.97,"AZUCAR CRYSTAL NIGHT CLUB     ",77074,29.7163519,-95.5012075
260806,13817.91,"3 SALSAS MEXICAN RESTURANT & C",77084,29.8365261,-95.6456879
260845,42705.97,"HOOT COUNTY SALOON            ",77032,29.95323,-95.376899
260886,0,"ARAMARK EDUCATIONAL SERVICES O",77004,29.7203175,-95.3434627
260890,14720,"ARAMARK EDUCATIONAL SERVICES O",77004,29.7209034,-95.3677844
260922,47134.93,"UNCLE ALBERTS PUB             ",77084,29.8619072,-95.6828745
260946,2623.88,"HILTON GARDEN INN HOUSTON WEST",77072,29.702798,-95.555325
260950,38781.94,"TREVISIO                      ",77030,29.7050857,-95.4018087
260976,5050,"THE ORIGINAL SPEAK EASY       ",77021,29.702292,-95.35375
261057,26606.87,"WILLOW FORK COUNTRY CLUB      ",77450,29.7381495,-95.7407665
261107,162068.96,"WATSON'S HOUSE OF ALES        ",77079,29.782778,-95.6434591
261158,13550,"BEAR CREEK GOLF WORLD         ",77084,29.8288262,-95.6382667
261182,2277.91,"GABBY'S                       ",77018,29.815391,-95.410867
261245,93508.96,"DOLCE VITA                    ",77006,29.7448235,-95.387463
261269,94264.93,"BLUR BAR                      ",77006,29.746948,-95.3894119
261299,10930,"INWOOD BAYOU PUB              ",77088,29.865931,-95.473251
261303,16302.99,"TOC BAR                       ",77002,29.764079,-95.36097
261307,12001.94,"TIO CHUCHO DOS                ",77065,29.9095237,-95.5885407
261340,76807.91,"CYCLONE ANAYA'S MEXICAN KITCHE",77057,29.7602913,-95.4823563
261377,6116.87,"BOULEVARD LOUNGES & CAFE      ",77061,29.656021,-95.263222
261385,1163.88,"PAPPAS BAR-B-Q                ",77002,29.7581257,-95.3696298
261393,78371.94,"BUFFALO WILD WINGS GRILL & BAR",77379,30.0628793,-95.5005887
261405,942.99,"PAPPAS BAR-B-Q                ",77040,29.8435855,-95.4979633
261468,15767.91,"HASTA LA PASTA                ",77379,30.0111472,-95.5125591
261472,4200,"HILTON GARDEN INN-GALLERIA ARE",77056,29.7342305,-95.4664188
261480,53156.87,"MAMACITAS MEXICAN RESTAURANT  ",77090,29.9911344,-95.4254453
261492,97007.91,"ARTURO'S UPTOWN               ",77056,29.755382,-95.4583385
261527,20891.94,"RED ROBIN RESTAURANT          ",77024,29.7857878,-95.4647994
261539,242934.93,"CITY KITCHEN                  ",77030,29.7190573,-95.381379
261543,48580,"END ZONE SPORTS BAR & GRILL, T",77082,29.7317023,-95.6537292
261547,52468.96,"LOS CUCOS MEXICAN CAFE        ",77057,29.7371281,-95.4824664
261551,18907.91,"LITTLE LOS CUCOS MEXICAN CAFE ",77007,29.7614493,-95.4181097
261587,30210,"KATZ'S DELI & BAR             ",77006,29.7448291,-95.389478
261678,77976.87,"GRINGO'S MEXICAN KITCHEN      ",77379,30.0111899,-95.5136116
261756,82684.93,"BUFFALO WILD WINGS GRILL & BAR",77049,29.8097558,-95.1645305
261799,55580.9,"CATTLEMAN'S CLUB/CACTUS JACKS'",77054,29.68,-95.413181
261823,120250.9,"CYCLONE ANAYA'S MEXICAN KITCHE",77002,29.7521219,-95.3766822
261831,136714.93,"WAREHOUSE LIVE                ",77003,29.7520055,-95.3545029
261843,19782.99,"LITTLE NAPOLI INC             ",77002,29.7622982,-95.3664589
261855,40850.9,"THE MAPLE LEAF PUB            ",77006,29.7437044,-95.3809335
261863,1010,"MILA'S TAQUERIA MEXICO        ",77063,29.7296597,-95.5205901
261882,6450.9,"CABANA BEVERAGES, INC.        ",77093,29.869322,-95.328381
261894,36816.87,"MOMENTS                       ",77037,29.8893659,-95.4127581
261926,105570.9,"RA SUSHI                      ",77027,29.740582,-95.4515725
261954,198160,"BIG TEXAS DANCE HALL & SALOON ",77388,30.0567563,-95.4377426
261996,16713.88,"EL JALAPENO MEXICAN CAFE      ",77093,29.8710661,-95.3293624
262019,72368.96,"VENUE                         ",77002,29.758644,-95.3633607
262046,44980.9,"MARRIOTT HOUSTON NORTH        ",77060,29.94195,-95.4038879
262066,11195.97,"SHOGUN JAPANESE GRILL & SUSHI ",77388,30.07138,-95.488789
262090,124643.88,"ESCALANTE'S MEXICAN GRILLE    ",77027,29.7416563,-95.4465319
262118,112211.94,"THE SPOT LOUNGE & BAR         ",77004,29.724545,-95.372647
262126,66175.97,"STUDIO MOVIE GRILL            ",77095,29.9033704,-95.6334107
262138,94520,"RUBY'S DINER                  ",77032,29.9871204,-95.3327633
262189,10775.97,"MI PUEBLITO RESTAURANT        ",77063,29.7288915,-95.5307562
262201,479342.99,"BRENNANS OF HOUSTON INC       ",77006,29.7430491,-95.3814122
262237,13791.94,"CHURRASCARIA CHURRASCOS RANCH ",77006,29.733276,-95.391486
262253,76635.97,"TAQUERIA ARANDAS NO. 36 INC.  ",77386,30.116014,-95.4394601
262284,4910.9,"HOTEL INDIGO HOUSTON GALLERIA ",77056,29.7365311,-95.4651436
262316,11453.88,"LAS CASCADAS MEXICAN RESTAURAN",77388,30.0510511,-95.4368558
262328,14586.87,"LA FINCA CINCO RANCH INC      ",77494,29.7371789,-95.7790687
262396,86164.93,"ON THE ROX SPORTS BAR & GRILL ",77065,29.9103138,-95.5851032
262404,43307.91,"OSTIONERIA MICHOACAN SEAFOOD &",77086,29.9914563,-95.5764359
262432,84126.87,"ALICIA'S MEXICAN GRILLE       ",77429,29.9749834,-95.7013654
262460,82331.94,"PF CHANG'S CHINA BISTRO       ",77070,29.9633777,-95.5490798
262491,63957.91,"MOLINA'S CANTINA              ",77007,29.7708299,-95.4090042
262531,98877.91,"ROOKIE'S SPORTS BAR AND GRILL ",77380,30.1261952,-95.4672962
262644,32314.93,"CHILI'S GRILL & BAR           ",77084,29.861596,-95.6451196
262652,40330,"1820                          ",77002,29.75819,-95.352808
262675,72832.99,"STARS SPORTS BAR & GRILL      ",77494,29.7753185,-95.7789141
262690,8108.96,"MAN NAM                       ",77055,29.803032,-95.5013765
262702,9510,"YAMANG                        ",77055,29.79393,-95.540796
262706,136915.97,"GRANDUCA HOSPITALITY SERVICES ",77056,29.7577313,-95.4583025
262722,0,"COPPA RISTORANTE              ",77007,29.7703495,-95.4182092
262761,2266.87,"CAFE' DEL SOL MEXICAN RESTAURA",77449,29.803467,-95.754484
262765,2787.91,"SUSHI TORA                    ",77007,29.767311,-95.3915812
262780,118727.91,"KONA GRILL                    ",77056,29.7406484,-95.4630733
262796,0,"TAQUERIA ALMA LATINA          ",77039,29.9028189,-95.3185864
262800,6538.96,"CRAZY CAJUN SEAFOOD & SPORTS  ",77040,29.8492483,-95.5042804
262877,37054.93,"ZZ GATOR'S COVE               ",77339,30.029245,-95.244955
262898,6200,"CERRITOS                      ",77011,29.7349141,-95.3006634
262945,20333.88,"CASA MARIA MEXICAN RESTAURANT ",77449,29.828559,-95.720657
262977,10368.96,"DOSEY DOE, INC.               ",77380,30.4504221,-95.4955417
263020,24885.97,"ALLEY THEATRE STORE           ",77002,29.7619315,-95.3652663
263024,26547.91,"NEMA BEVERAGE CORPORATION     ",77056,29.739228,-95.4639173
263028,12740,"V'S THAI RESTAURANT & BAR     ",77077,29.737245,-95.603618
263036,17462.99,"ALEXANDER THE GREAT           ",77056,29.735126,-95.466121
263051,185928.96,"NINFA'S ON NAVIGATION         ",77003,29.7567964,-95.3425982
263064,30353.88,"NINFA'S GULF FREEWAY          ",77017,29.668205,-95.2608907
263068,1080,"EL POLLO BRAVO                ",77081,29.7163811,-95.4976542
263077,166456.87,"KIRBY LANE VENTURE, LP        ",77098,29.7336948,-95.4180624
263141,82238.96,"GEORGE                        ",77006,29.747943,-95.388632
263153,163013.88,"THE OCEANAIRE SEAFOOD ROOM    ",77056,29.7406484,-95.4630733
263198,34675.97,"LOS CUCOS MEXICAN CAFE        ",77008,29.7914816,-95.3878734
263206,69568.96,"JOHN'S PLACE                  ",77379,30.007566,-95.546891
263294,12845.97,"WOODROW'S HEIGHTS             ",77007,29.7721051,-95.410454
263306,35590,"WOODROW'S BAR & GRILL         ",77056,29.732747,-95.476196
263337,183560.9,"MORTON'S OF CHICAGO           ",77002,29.7568842,-95.3642926
263374,1455.97,"MISSION BURRITOS              ",77098,29.7381724,-95.4148365
263390,69850.9,"TIME OUT #4                   ",77090,29.9891982,-95.4259533
263441,16810,"OSAKA JAPANESE RESTAURANT     ",77006,29.7441848,-95.3882141
263449,59420.9,"TAQUERIA ARANDAS #23          ",77090,30.0192866,-95.4297795
263467,18060.9,"WINGS PIZZA N THINGS #1       ",77059,29.626499,-95.142357
263511,743761.94,"HOTEL ZA ZA                   ",77005,29.7242904,-95.3901682
263538,63566.87,"AGAVE BAR                     ",77084,29.8343054,-95.6460607
263546,29324.93,"JOE'S CRAB SHACK              ",77054,29.6768888,-95.419775
263562,22143.88,"ROMERO'S LAS BRAZAS MEXICAN KI",77433,29.9018113,-95.6848098
263593,162538.96,"COPPA OSTERIA                 ",77005,29.7187005,-95.4151532
263702,59988.96,"FIRKIN & PHOENIX RESTAURANT & ",77098,29.7425187,-95.4077174
263714,1491.94,"SPRING CREEK OAK TIMBERS      ",77346,29.9987028,-95.1880457
263718,1038.96,"SPRING CREEK BARBEQUE         ",77084,29.8627708,-95.645133
263758,3712.99,"LUNA'S MEXICAN RESTAURANT     ",77060,29.9460485,-95.4126395
263774,25373.88,"CHILI'S GRILL & BAR           ",77040,29.845974,-95.4995234
263789,50526.87,"TEXAS ROADHOUSE               ",77073,30.0205469,-95.4278229
263805,55048.96,"HOOTERS OF KATY               ",77450,29.7852278,-95.7605677
263876,122476.87,"CHUY'S                        ",77098,29.7425477,-95.4203372
263948,14471.94,"RED ROBIN RESTAURANT          ",77070,29.9914563,-95.5764359
264007,58947.91,"CRAZY FROGS BAR AND GRILL     ",77041,29.896836,-95.607847
264031,21338.96,"JOE'S CRAB SHACK              ",77077,29.7436375,-95.6454444
264035,20303.88,"JOE'S CRAB SHACK              ",77090,29.9866463,-95.4244137
264043,288942.99,"LOCAL POUR                    ",77019,29.7535059,-95.4069037
264047,39450,"DOUBLETREE GUEST SUITES HOUSTO",77056,29.7391167,-95.4689223
264059,46492.99,"KAY'S LOUNGE                  ",77005,29.725794,-95.413951
264063,20312.99,"JOE'S CRAB SHACK              ",77034,29.6174846,-95.2189764
264101,7931.94,"BONGOS SPORTS Y CAFE          ",77081,29.6952495,-95.4920257
264174,12153.88,"CHRISTIAN'S TAILGATE & GRILL H",77007,29.7784441,-95.4298605
264186,54550,"BEAVER'S                      ",77007,29.7670911,-95.3822852
264214,5081.94,"THE TALON BAR COMPANY         ",77077,29.7618278,-95.6440935
264417,11772.99,"KOBE JAPANESE GRILL & SUSHI   ",77380,30.1261952,-95.4672962
264464,33394.93,"CHILI'S GRILL & BAR           ",77396,29.9335064,-95.2521026
264472,191851.94,"REEF RESTAURANT               ",77006,29.7457318,-95.3755614
264484,0,"MG COFFEE INC                 ",77049,29.9407142,-95.2812859
264504,27011.94,"GLITTER KARAOKE MIDTOWN       ",77006,29.7458696,-95.376055
264508,82172.99,"WILD WING CAFE'               ",77449,29.7870426,-95.7348327
264527,61646.87,"RAFFA'S RESTAURANT            ",77339,30.0322941,-95.17393
264551,23592.99,"JUST A BAR                    ",77083,29.689017,-95.62
264562,19777.91,"CRABBYDADDY                   ",77386,30.116014,-95.4394601
264625,21210,"CASA GRANDE MEXICAN RESTAURANT",77009,29.788549,-95.370594
264653,26921.94,"GOLDEN SEAFOOD HOUSE          ",77009,29.808634,-95.382488
264710,78623.88,"BOONDOCKS                     ",77006,29.742622,-95.3966718
264741,29310.9,"BERRYHILL BAJA GRILL          ",77024,29.7806697,-95.5379936
264766,13941.94,"SOUTHWEST F & B LLC           ",77074,29.6850593,-95.5342216
264774,41580,"RACKS BAR AND GRILL           ",77068,30.0233961,-95.4750023
264845,120353.88,"COACHES SPORTS BAR & GRILL    ",77346,29.9982861,-95.1947942
264857,53081.94,"PREMIER HOSPITALITY, INC.     ",77030,29.7162369,-95.3889879
264869,147330,"1308 CANTINA                  ",77019,29.7550774,-95.3922865
264873,4977.91,"TEOTIHUACAN MEXICAN CAFE #1   ",77009,29.8023412,-95.3609762
264935,27345.97,"HOLIDAY INN SELECT NEAR GREENW",77098,29.731529,-95.421308
264960,1220,"SPRING CREEK TOWN STREET      ",77068,29.990954,-95.496241
264983,7920.9,"HAZARD BAR & GRILL            ",77077,29.7454,-95.606538
264987,96874.93,"LUPE TORTILLA                 ",77070,29.9914563,-95.5764359
264991,82717.91,"LUPE TORTILLAS                ",77098,29.732057,-95.416724
265003,173833.88,"HOWL AT THE MOON SALOON-HOUSTO",77002,29.748823,-95.37582
265019,194998.96,"BOHEME                        ",77006,29.7480668,-95.3860611
265061,19921.94,"WINGS N MORE                  ",77095,29.899435,-95.635214
265117,37478.96,"SILVERADO THEATRE             ",77375,30.0415272,-95.6053728
265121,27288.96,"CHILI'S GRILL & BAR           ",77085,29.6148923,-95.4946089
265133,77350.9,"LUCKY'S PUB                   ",77003,29.7524584,-95.3540548
265137,103822.99,"CIAO BELLO                    ",77056,29.7493342,-95.4659542
265141,740.9,"CHIPOTLE MEXICAN GRILL        ",77027,29.7322181,-95.4390787
265170,14906.87,"150 BRONX BAR                 ",77005,29.7161845,-95.4146333
265186,39654.93,"OSTIONERIA MICHOACAN #3       ",77015,29.7733131,-95.2167313
265194,5645.97,"JET LOUNGE                    ",77002,29.749146,-95.364306
265198,1203.88,"CHIPOTLE MEXICAN GRILL        ",77063,29.7368563,-95.5150293
265209,12554.93,"WINGS N MORE                  ",77090,29.9891982,-95.4259533
265213,5968.96,"WLS BEVERAGE COMPANY          ",77056,29.7368938,-95.46792
265225,10505.97,"PLAYA AZUL SEAFOOD & OYSTER BA",77070,29.9671509,-95.5842983
265248,48230.9,"TEXAS ROADHOUSE               ",77449,29.7861984,-95.7335476
265259,66527.91,"SOMA JAPANESE RESTAURANT      ",77007,29.7707706,-95.4098969
265263,17437.91,"HUNGRY'S CAFE & BISTRO        ",77005,29.7178458,-95.4136269
265275,32047.91,"LAS HACIENDAS MEXICAN BAR & GR",77034,29.6132155,-95.2113293
265302,13546.87,"TAMPICO SEAFOOD COMIDA MEXICAN",77037,29.9090276,-95.4134427
265318,17543.88,"LA FISHERIA                   ",77007,29.7753801,-95.4087833
265322,2100,"PAPPAS BAR B-Q #4             ",77074,29.7087972,-95.5068338
265346,2877.91,"TAQUERIA MEXICO               ",77081,29.7050145,-95.4905078
265354,42650,"AKA SUSHI HOUSE               ",77098,29.7388763,-95.4161607
265358,150034.93,"SAM'S BOAT                    ",77057,29.732019,-95.479801
265362,12204.93,"CARRUSELES CLUB               ",77084,29.8325541,-95.6462104
265370,4328.96,"TAQUERIA ARANDAS NO 14 INC    ",77023,29.7150812,-95.313916
265413,56110.9,"ARENA THEATRE                 ",77074,29.7019237,-95.5176261
265425,8038.96,"BOMBAY BRASSERIE              ",77027,29.7349598,-95.4586429
265436,2037.91,"FIESTA LOMA LINDA MEXICAN REST",77023,29.7228744,-95.3227229
265498,5405.97,"J-DS REST AND UPSCALE LOUNGE  ",77068,29.992933,-95.4912852
265510,59158.96,"LUPE TORTILLA                 ",77090,29.9904573,-95.4258104
265514,32613.88,"TRIPLE CROWN SPORTS BAR       ",77077,29.7351724,-95.6332987
265522,35242.99,"THE ABBEY PUB                 ",77084,29.796265,-95.718403
265530,260422.99,"BRENNER'S ON THE BAYOU        ",77007,29.7595602,-95.4199177
265539,554161.94,"DEL FRISCO'S DOUBLE EAGLE STEA",77056,29.7406484,-95.4630733
265563,46345.97,"BREWSKIS PUB & PATIO BAR      ",77065,29.9198048,-95.6108682
265580,13141.94,"AU PETIT PARIS                ",77098,29.7353765,-95.410073
265610,13497.91,"BERRYHILL BAJA GRILL          ",77069,29.9724886,-95.526431
265688,81534.93,"MI RANCHO MEXICAN GRILL & BAR ",77396,29.9366478,-95.2491153
265711,30010,"CHILI'S GRILL & BAR           ",77007,29.7763336,-95.3834445
265739,30273.88,"CHILI'S GRILL & BAR           ",77037,29.9247723,-95.4131881
265743,225205.97,"THE GROVE                     ",77010,29.7527204,-95.3606282
265755,43448.96,"OPORTO CAFE                   ",77027,29.7322871,-95.4395531
265807,130065.97,"SHOT BAR                      ",77006,29.749617,-95.3778935
265853,7128.96,"POBLANO'S MEXICAN GRILL INC   ",77077,29.7664687,-95.625209
265869,19142.99,"ORLEANS SEAFOOD KITCHEN       ",77449,29.7870426,-95.7348327
265885,37860.9,"HOLIDAY INN HOUSTON AIRPORT   ",77032,29.9380311,-95.3308109
265937,283781.94,"PERRY'S STEAKHOUSE & GRILLE   ",77070,29.9887229,-95.5557978
265949,48486.87,"IGUANA JOE'S MEXICAN RESTAURAN",77015,29.8069935,-95.1624148
265957,165620.9,"CEDAR CREEK CAFE              ",77008,29.8035,-95.4177179
265989,195886.87,"PERRY'S GRILLE & STEAKHOUSE   ",77058,29.5501734,-95.127138
266009,90358.96,"CULLEN'S UPSCALE AMERICAN GRIL",77059,29.6244046,-95.1412776
266016,5327.91,"838 SUSHI ASIAN RESTAURANT    ",77346,30.001247,-95.1615969
266024,336921.94,"PERRY'S STEAKHOUSE & GRILLE   ",77024,29.7832482,-95.5385681
266036,387.91,"HOUSTON EVENT PLANNING, INC.  ",77083,29.7025845,-95.634512
266044,77811.94,"CHUY'S                        ",77065,29.9141975,-95.6166562
266048,44143.88,"RESERVE 101                   ",77002,29.753638,-95.3635175
266068,24645.97,"TORO JAPANESE STEAKHOUSE & SUS",77065,29.9157526,-95.6151773
266092,221784.93,"221-B BAKER STREET PUB & GRILL",77494,29.7432675,-95.7751626
266198,18988.96,"RICO'S GRILL                  ",77380,30.1261952,-95.4672962
266217,83187.91,"PORCH SWING PUB               ",77007,29.770014,-95.3977264
266271,66835.97,"HUNGRY'S CAFE & BISTRO        ",77079,29.7707269,-95.6092244
266329,158883.88,"CHULA'S SPORTS CANTINA        ",77029,29.7740976,-95.2376364
266346,0,"CAPONE'S BAR AND OVEN         ",77027,29.7422123,-95.4503014
266350,34063.88,"MOLLY'S PUB                   ",77002,29.760246,-95.361956
266369,27734.93,"LA BOOM                       ",77063,29.721251,-95.5392148
266408,20227.91,"AMF DIAMOND LANES             ",77090,30.005013,-95.429018
266412,4455.97,"SASAKI JAPANESE RESTAURANT    ",77063,29.7369361,-95.5219516
266433,77783.88,"CHIMICHURRI'S SOUTH AMERICA GR",77345,30.0322941,-95.17393
266437,24515.97,"WAZA SUSHI & ROBATA GRILL     ",77069,29.9681476,-95.5325126
266549,17424.93,"RIVER OAKS LOUNGE             ",77019,29.7528498,-95.4091175
266572,54784.93,"LA TAPATIA MEXICAN CAFE       ",77056,29.7307853,-95.4761158
266591,134794.93,"HEARSAY                       ",77002,29.7630462,-95.3616241
266615,29935.97,"SECRET                        ",77088,29.8743,-95.411557
266689,33346.87,"SHARKY'S                      ",77339,30.0322941,-95.17393
266693,450.9,"MISSION BURRITOS #803         ",77494,29.7432675,-95.7751626
266718,6002.99,"CIELO AZUL                    ",77036,29.707709,-95.519676
266781,107146.87,"VIET RESTAURANT               ",77098,29.7333189,-95.4191919
266813,4337.91,"ZIGGY'S BAR AND GRILL MONTROSE",77006,29.7483462,-95.385893
266817,30691.94,"RUCHI'S EL RINCON DE MEXICO GR",77057,29.7380601,-95.4967597
266829,35415.97,"CHACHO'S                      ",77022,29.845107,-95.391615
266837,26814.93,"THE DEN                       ",77004,29.7190842,-95.3377052
266845,21370,"G H A INC                     ",77018,29.8099506,-95.4428152
266884,9627.91,"PERICOS MEXICAN CAFE AND BAR  ",77092,29.8120349,-95.4596181
266892,293950,"SAMBUCA RESTAURANT            ",77002,29.7605731,-95.3626966
266929,10580,"HILTON GARDEN INN ENERGY CORRI",77079,29.7824472,-95.6034118
266964,7797.91,"TOKYO STEAK & SUSHI           ",77450,29.7350901,-95.7623551
266980,8650,"CLEOPATRA'S PALACE BANQUET FAC",77068,29.9964494,-95.4813812
267092,0,"LUBY'S BEVCO INC              ",77030,29.7050857,-95.4018087
267100,66890.9,"CHILOS SEAFOOD RESTAURANT #2  ",77034,29.6417232,-95.2414564
267116,611.94,"COMALA MEXICAN CAFE           ",77015,29.939033,-95.3977404
267120,38756.87,"THE DAVENPORT LOUNGE - CLEAR L",77062,29.582789,-95.153531
267209,106506.87,"MCCORMICK & SCHMICK'S SEAFOOD ",77002,29.7545151,-95.3651358
267246,10730.9,"SHOGUN JAPANESE GRILL & SUSHI ",77070,29.9958232,-95.5739428
267299,7454.93,"RUCHIS EL RINCON DE MEXICO #3 ",77056,29.7311674,-95.4672106
267315,2170,"SPRING CREEK BARBEQUE         ",77449,29.7854291,-95.7363684
267319,185568.96,"LUCKY STRIKE HOUSTON L L C    ",77002,29.7546546,-95.3651509
267327,82345.97,"PAPPADEAUX SEAFOOD KITCHEN    ",77077,29.7357498,-95.5943214
267335,0,"PAPPADEAUX SEAFOOD KITCHEN    ",77087,29.700138,-95.290958
267343,36540.9,"THE OLIVE GARDEN ITALIAN RESTA",77058,29.5602827,-95.1158204
267347,66062.99,"MASONE'S, LLC                 ",77429,29.9727241,-95.7017198
267356,19552.99,"TABLE 7 BISTRO                ",77002,29.758329,-95.362874
267360,2305.97,"GUAYABA LATIN GRILL           ",77064,29.9550592,-95.5429366
267372,28026.87,"SHERATON WEST HOUSTON         ",77041,29.831284,-95.560612
267381,20357.91,"ROB'S PLACE                   ",77084,29.865649,-95.682183
267392,17060.9,"NAAM KHAO RESTAURANT & BAR    ",77077,29.7599956,-95.6263503
267396,8301.94,"CRAVE SUSHI                   ",77006,29.743819,-95.377002
267408,53817.91,"MARISCOS MAR AZUL             ",77099,29.654782,-95.567195
267415,52221.94,"PINE FOREST COUNTRY CLUB      ",77084,29.8278184,-95.6751786
267423,13800,"COMMUNITY WINE BAR            ",77006,29.7462478,-95.3782651
267450,122298.96,"EL TIEMPO CANTINA             ",77070,29.9958232,-95.5739428
267454,3146.87,"TOKYO ONE SUSHI & GRILL       ",77064,29.9535332,-95.5365017
267458,13681.94,"FLOR DE CUBA                  ",77084,29.8342484,-95.6471781
267466,32497.91,"EI8HT                         ",77007,29.7710247,-95.412767
267497,661613.88,"HOUSE OF BLUES                ",77002,29.7539291,-95.3640564
267501,9265.97,"LOS FAROLES MEXICAN RESTAURANT",77084,29.8536358,-95.6823855
267513,80267.91,"TAPS HOUSE OF BEERS           ",77007,29.7706285,-95.4132867
267560,2115.97,"BECKS PRIME MC SPORTATORIUM, L",77024,29.7806697,-95.5379936
267579,29770,"HANKANG                       ",77055,29.7966912,-95.5258214
267624,18605.97,"BLACK WALNUT CAFE             ",77005,29.7161658,-95.4153375
267628,67331.94,"CHACHI'S MEXICAN BAR & GRILL  ",77339,30.0481545,-95.1854024
267648,6560.9,"LAS PALOMAS MEXICAN RESTAURANT",77339,30.0493585,-95.2338936
267664,7686.87,"NORTH CHINA RESTAURANT        ",77079,29.7836137,-95.6425288
267699,7404.93,"SECO'S LATIN RESTAURANT       ",77005,29.7225036,-95.4181646
267715,12204.93,"HORNET OPERATING LLC          ",77060,29.9378099,-95.3927039
267766,212896.87,"PERRY'S GRILL & STEAKHOUSE    ",77494,29.7432675,-95.7751626
267819,167293.88,"BENJY'S ON WASHINGTON         ",77007,29.7712781,-95.4213761
267823,83514.93,"CROCKER                       ",77006,29.748525,-95.389895
267890,96898.96,"SWAGGER                       ",77027,29.728852,-95.4379974
267894,3510,"CABANA BEVERAGES INC          ",77023,29.7138061,-95.31474
267927,15767.91,"BODEGAS TACO SHOP             ",77004,29.7240441,-95.3878596
267931,2748.96,"TACO DE ORO MEXICAN RESTAURANT",77433,29.9198633,-95.6854947
267935,278967.91,"WOLFGANG PUCK @ VERIZON THEATE",77002,29.7625378,-95.3668464
267958,70623.88,"MIA BELLA                     ",77070,29.994345,-95.5721842
267970,63955.97,"THE CONCERT PUB               ",77057,29.7320984,-95.4781294
267989,0,"LA PALAPA ICE HOUSE           ",77093,29.8852496,-95.3553952
267993,10373.88,"GREAT SPIRITS L L C           ",77006,29.7386198,-95.384306
268060,141010,"STUDIO MOVIE GRILL            ",77024,29.7778768,-95.4946845
268100,25510.9,"ROMANO'S MACARONI GRILL       ",77057,29.7382794,-95.4809029
268124,23561.94,"ROMANO'S MACARONI GRILL       ",77070,29.9627152,-95.5424931
268153,38188.96,"MOVIE TAVERN WILLOWBROOK      ",77070,29.9914563,-95.5764359
268157,33026.87,"MOVIE TAVERN                  ",77090,29.9950223,-95.4263378
268196,48723.88,"DARIO'S AMERICAN CUISINE      ",77429,30.0439498,-95.542505
268213,8050,"ZIO'S ITALIAN KITCHEN         ",77090,29.9876637,-95.4247441
268232,70694.93,"CENTER BAR                    ",77032,29.987366,-95.3337998
268236,140778.96,"LE GRAND COMPTOIR             ",77032,29.987366,-95.3337998
268240,58232.99,"MANGO TACO TRUCK              ",77032,29.987366,-95.3337998
268248,25670.9,"USA SEAFOOD GRILL & BAR       ",77041,29.879934,-95.613033
268267,57507.91,"EL PACIFICO SEAFOOD RESTAURANT",77081,29.7066383,-95.4839343
268271,123633.88,"PELI PELI                     ",77070,29.994345,-95.5721842
268290,16485.97,"MARY'Z MEDITERRANEAN CUISINE I",77057,29.731124,-95.4821599
268373,101974.93,"DOUBLETREE HOUSTON INTERNATION",77032,29.946392,-95.332562
268377,41516.87,"KIM'S PUB                     ",77377,30.0123944,-95.5955112
268389,192010.9,"MO'S A PLACE FOR STEAKS       ",77056,29.7475202,-95.4604791
268393,94500,"GUADALAJARA DEL CENTRO        ",77002,29.7546546,-95.3651509
268419,24524.93,"20 BELOW SPORTS LOUNGE LLC    ",77449,29.8163205,-95.7211449
268423,39000.9,"HOOTERS OF HOUSTON NW FREEWAY ",77040,29.8447895,-95.496275
268454,11618.96,"LAVA ROCK                     ",77007,29.770088,-95.4038549
268470,103151.94,"COACHES SPORTS BAR & GRILL    ",77094,29.7859146,-95.6862924
268501,52635.97,"SYLVIA'S ENCHILADA KITCHEN    ",77057,29.754839,-95.498763
268536,21937.91,"RAINFOREST CAFE               ",77056,29.739545,-95.462716
268638,72348.96,"BUFFALO WILD WINGS GRILL & BAR",77406,29.6935765,-95.7734572
268646,183217.91,"ANVIL                         ",77006,29.7431228,-95.3969013
268650,8490.9,"TAQUERIA ARANDAS #12          ",77034,29.643112,-95.2438449
268679,260593.88,"FLEMING'S PRIME STEAKHOUSE AND",77024,29.7772638,-95.5624894
268683,111600,"JOY OF HOUSTON SPORT BAR      ",77041,29.881405,-95.5775
268694,44158.96,"CHEDDARS CASUAL CAFE          ",77388,30.0675642,-95.4357758
268706,118685.97,"BRICK HOUSE TAVERN + TAP      ",77040,29.8445693,-95.4957237
268748,5914.93,"EMPORIO BRAZILIAN CAFE INC    ",77077,29.7375309,-95.5971952
268767,20630.9,"XFY MONGOLIA HOT POT & GRILL  ",77057,29.7368681,-95.4850068
268778,4311.94,"ANGUS GRILL BRAZILIAN STEAKHOU",77057,29.7381732,-95.4893741
268835,52242.99,"REBELS HONKY TONK             ",77007,29.7709322,-95.4118038
268843,43297.91,"THE LANCASTER BISTRO          ",77002,29.7615739,-95.3647711
268856,948.96,"EL CHINAMPA MEXICAN RESTAURANT",77049,29.809378,-95.159402
268864,89570.9,"CANYON CREEK CAFE, LLC        ",77007,29.7749672,-95.427747
268873,167186.87,"III FORKS #422                ",77002,29.7545151,-95.3651358
268914,95995.97,"BOURBON STREET SPORTS BAR     ",77450,29.7712529,-95.7516166
268922,2200,"AMORE ITALIAN RESTAURANT      ",77099,29.6511139,-95.5695191
268926,23066.87,"BOOTLEGGERS                   ",77065,29.9086271,-95.5915751
268930,22383.88,"BOUDREAUX'S CAJUN KITCHEN     ",77055,29.7856147,-95.5367278
268980,9495.97,"RICO'S MEXICAN GRILL          ",77339,30.0503219,-95.2360594
268996,5112.99,"JEFE BAR LATIN CLUB           ",77002,29.760745,-95.362289
269008,143471.94,"2-A-DAYS                      ",77089,29.5979746,-95.2656636
269055,159366.87,"MCCORMICK & SCHMICK'S SEAFOOD ",77024,29.7702767,-95.6005162
269064,53180.9,"HOOTERS OF WILLOWBROOK        ",77064,29.9550592,-95.5429366
269187,1051.94,"CHIPOTLE MEXICAN GRILL        ",77025,29.6909133,-95.4158267
269203,25160.9,"CANDELARI'S PIZZERIA          ",77025,29.7057954,-95.4191894
269207,275217.91,"SDG POST OAK LP               ",77056,29.7472091,-95.4616578
269218,75006.87,"EXIT 73 BAR & GRILL           ",77386,30.1148024,-95.4385131
269284,944.93,"CHIPOTLE MEXICAN GRILL        ",77070,29.9963676,-95.5768153
269292,130888.96,"RA SUSHI                      ",77024,29.7786274,-95.5618933
269321,17818.96,"BIG FUN ENTERTAINMENT         ",77070,29.941107,-95.58421
269329,141144.93,"PETE'S DUELING PIANO BAR      ",77002,29.7545151,-95.3651358
269346,21247.91,"EL BOCADITO SPORTS BAR        ",77017,29.673091,-95.264104
269350,638.96,"CHIPOTLE MEXICAN GRILL        ",77346,30.000172,-95.1848911
269433,206378.96,"VALENCIA ORANGES IV, LLC      ",77024,29.7801559,-95.5602669
269449,34350,"RUBY TEQUILA'S MEXICAN KITCHEN",77070,29.9628708,-95.5449997
269473,9158.96,"COURTYARD BY MARRIOTT - HOUSTO",77079,29.7836531,-95.6075555
269477,11960,"COPA SPORTS BAR               ",77099,29.6546847,-95.5700496
269481,5583.88,"LA PRESA MEXICAN RESTAURANT   ",77373,30.0511276,-95.3885008
269497,62391.94,"CHUY'S                        ",77063,29.737902,-95.528432
269520,65742.99,"BENCHWARMERS SPORTS BAR       ",77095,29.9079224,-95.6304646
269536,22413.88,"G BAR                         ",77079,29.77944,-95.6279969
269611,35310,"LEGENDS SPORTS BAR & LOUNGE   ",77089,29.5922532,-95.2055298
269622,22846.87,"ANTONIA'S CUCINA ITALIANA BAR ",77429,29.9727241,-95.7017198
269657,36126.87,"EMBASSY SUITE HOUSTON-ENERGY P",77079,29.786482,-95.5929869
269685,44988.96,"TONY'S MEXICAN RESTAURANT     ",77450,29.7705637,-95.7530733
269701,5942.99,"MONGOLIAN MANAGEMENT LLC      ",77055,29.7856767,-95.5351524
269716,1264.93,"WACKY MONGOLIAN GRILL & BBQ   ",77070,29.9959049,-95.5743487
269741,2160,"IL ME JUNG RESTAURANT         ",77055,29.793996,-95.541779
269820,154334.93,"STRAITS HOUSTON CITY CENTER, L",77024,29.7797741,-95.5616562
269835,12810,"ATAMI STEAK & SUSHI           ",77450,29.7765271,-95.7516702
269851,1845.97,"RESTAURANTE Y TAQUERIAS MONTER",77023,29.724999,-95.323469
269859,49578.96,"BREWSKIS PUB & PATIO NO 2     ",77070,29.9971677,-95.5821428
269912,12743.88,"BRAZOS CONCESSIONS CO         ",77032,29.9871212,-95.3349475
269916,70527.91,"WHATEVER SPORTS BAR & GRILL   ",77070,29.9478355,-95.5843214
269952,33371.94,"BRAVO NITE CLUB               ",77074,29.6875644,-95.530137
269968,16815.97,"FUKUDA SUSHI & ROBATA         ",77380,30.4504221,-95.4955417
270000,34691.94,"CAFE' ADOBE                   ",77546,29.5395904,-95.1450394
270081,33281.94,"CANOPY                        ",77006,29.7375818,-95.3906721
270101,17293.88,"LOS TRES RANCHITOS #2         ",77377,30.0014844,-95.6104718
270124,39241.94,"ALICIA'S MEXICAN GRILLE #2    ",77379,30.0628793,-95.5005887
270139,1831.94,"SPRING CREEK BARBEQUE-KLEIN   ",77379,30.0737643,-95.497423
270156,35736.87,"CAFE GINGER                   ",77019,29.7535059,-95.4069037
270160,16025.97,"SPRINGHILL SUITES HOUSTON     ",77032,29.9489972,-95.3308874
270164,6262.99,"BRAZOS CONCESSIONS CO         ",77032,29.9871212,-95.3349475
270168,429610.9,"YARD HOUSE                    ",77024,29.7801559,-95.5602669
270176,141381.94,"ROYAL OAK                     ",77006,29.743971,-95.395358
270180,27370.9,"BRIXX                         ",77007,29.7706706,-95.4129814
270198,32271.94,"MUCHO MEXICO                  ",77020,29.773234,-95.290868
270214,3242.99,"LA IGUANA KARAOKE & CAFE      ",77081,29.7205804,-95.4741627
270234,0,"WHITE HOUSE                   ",77004,29.739491,-95.37405
270307,33682.99,"STRATA RESTAURANT             ",77070,29.9950302,-95.5713392
270311,74213.88,"LAURENZO'S GRILLE DELLO SPORT ",77007,29.7705889,-95.4055996
270323,7931.94,"HOLIDAY INN / SPORTING NEWS GR",77077,29.768708,-95.625016
270359,55254.93,"NICO'S                        ",77339,30.039361,-95.251603
270363,85006.87,"WOLFIE'S RESTAURANT AND SPORTS",77070,29.9914563,-95.5764359
270406,37240,"THE FIREHOUSE SALOON          ",77057,29.726566,-95.4838994
270479,49080,"HEADLINERS SPORTS BAR         ",77065,29.9163036,-95.583923
270487,13392.99,"RED ROBIN RESTAURANT          ",77449,29.7900618,-95.7744165
270558,63641.94,"THE DOG HOUSE TAVERN          ",77006,29.7487759,-95.3790056
270562,48552.99,"COACHES PUB                   ",77002,29.6700261,-95.2419787
270581,79857.91,"THE QUEEN VIC                 ",77098,29.7341525,-95.4204592
270601,107255.97,"CHACHO'S                      ",77054,29.6784331,-95.4219525
270641,18965.97,"EL RANCHO MEXICAN GRILL & BAR ",77494,29.7138774,-95.7778041
270645,29150.9,"HOUSTON MARRIOTT ENERGY CORRID",77094,29.7836396,-95.6641665
270669,408.96,"OREM SPORTS BAR               ",77045,29.6271291,-95.4452068
270752,41875.97,"SHARKY'S MACHINE              ",77084,29.8495859,-95.6827906
270768,900,"MAGGIE RITA'S                 ",77002,29.7604178,-95.3641512
270789,18308.96,"JEFF'S 77                     ",77069,29.9824657,-95.5080333
270879,69035.97,"BAR 5015                      ",77004,29.723859,-95.378093
270883,57110,"TUXEDO'S/CIMARRON             ",77092,29.8047021,-95.4499442
270899,50177.91,"THE RAILYARD                  ",77027,29.748424,-95.448873
270915,104118.96,"OSTIONERIA MICHOACAN #11      ",77023,29.7166683,-95.3161586
270930,70796.87,"MANGUM STEAKHOUSE             ",77092,29.809831,-95.459672
270945,236565.97,"WHISKEY RIVER                 ",77070,29.962106,-95.544397
270957,18595.97,"MERCHE!                       ",77429,29.9261766,-95.6350045
270969,728.96,"BAYTOWN SEAFOOD & BAR         ",77396,29.9400635,-95.2705464
270992,11350,"LA FAMILIA MEXICAN RESTAURANT ",77598,29.5237017,-95.1488753
270996,28907.91,"HOUSTON'S PUB & GRILL         ",77090,30.0099987,-95.4584816
271047,43770.9,"LAS ALAMEDAS                  ",77494,29.7432675,-95.7751626
271051,119056.87,"STATS SPORTS BAR & GRILL      ",77070,29.9977912,-95.5757477
271123,9676.87,"HARVEYS', THE DAM ICE HOUSE   ",77077,29.7506017,-95.6448792
271127,72298.96,"LONE STAR ICE HOUSE           ",77070,30.0132585,-95.5870605
271133,126981.94,"ARMANDOS                      ",77098,29.742454,-95.4197531
271152,45155.97,"LEON'S LOUNGE                 ",77002,29.744936,-95.373732
271175,584.93,"CHIPOTLE MEXICAN GRILL        ",77049,29.9407142,-95.2812859
271187,31365.97,"BLUEWATER SEAFOOD             ",77065,29.9198048,-95.6108682
271198,76614.93,"BREWSKIS PUB & PATIO-KATY     ",77449,29.7870426,-95.7348327
271206,9193.88,"SPORTING NEWS GRILL           ",77042,29.7215002,-95.5591718
271226,551.94,"CHIPOTLE MEXICAN GRILL        ",77024,29.779207,-95.562113
271234,96930.9,"ONION CREEK COFFEE HOUSE      ",77007,29.78183,-95.39102
271269,138988.96,"THE BELLTOWER ON 34TH         ",77018,29.8168327,-95.4156709
271281,123996.87,"BRIO TUSCAN GRILLE            ",77024,29.779204,-95.560241
271315,247200.9,"MASRAFF'S                     ",77056,29.7484453,-95.4611249
271344,6808.96,"EMBASSY SUITES HOUSTON        ",77056,29.736433,-95.4662029
271364,5983.88,"TEPATITLAN INC                ",77009,29.7983,-95.3825873
271368,2947.91,"OSAKA STEAK HOUSE             ",77049,29.8073917,-95.1684043
271376,26834.93,"WILLIE'S GRILL & ICEHOUSE     ",77429,29.9558606,-95.6747247
271455,52993.88,"LIBRA LOUNGE                  ",77025,29.678298,-95.425242
271479,65890,"LIBERTY STATION               ",77007,29.7678218,-95.3796763
271490,32160,"THE R BAR                     ",77007,29.7605827,-95.417709
271498,32107.91,"RATTAN RESTAURANT             ",77077,29.7606612,-95.6262926
271502,2358.96,"UNITED CLUB                   ",77032,29.9867028,-95.3479921
271506,12260.9,"UNITED CLUB                   ",77032,29.9867028,-95.3479921
271510,10993.88,"UNITED CLUB                   ",77032,29.9867028,-95.3479921
271518,19206.87,"UNITED CLUB                   ",77032,29.9867028,-95.3479921
271522,39206.87,"UNITED CLUB                   ",77032,29.9867028,-95.3479921
271547,26074.93,"MAI'S RESTAURANT              ",77002,29.7411723,-95.379736
271551,8775.97,"THE CHELSEA GRILL             ",77006,29.7309579,-95.3906968
271566,14620,"BERRYHILL BAJA GRILL          ",77005,29.7278198,-95.4290445
271609,47128.96,"THREE B'S GRILL               ",77345,30.0503804,-95.1812411
271621,81060.9,"LITTLE WOODROW'S EAST END     ",77003,29.7522997,-95.3548426
271657,145660.9,"CYCLONE ANAYAS MEXICAN KITCHEN",77024,29.7801559,-95.5602669
271690,19213.88,"SUNNY'S                       ",77002,29.7592469,-95.363541
271694,64770.9,"PHILIPPE RESTAURANT AND LOUNGE",77056,29.7472091,-95.4616578
271706,23267.91,"BROOKLYN ATHLETIC CLUB        ",77006,29.734251,-95.3871762
271769,133297.91,"AMERICAS RESTAURANT           ",77019,29.7536605,-95.4102692
271773,30051.94,"JOYCE'S OYSTER RESORT         ",77057,29.7503969,-95.4935119
271781,0,"MONSTERVILLE'S CATERING & EVEN",77083,29.680363,-95.622698
271804,0,"PURO NORTE SPORTSBAR & TAQUERI",77076,29.8703056,-95.398343
271808,99474.93,"TIME OUT TAVERN               ",77346,29.997177,-95.1606308
271844,78631.94,"BUFFALO WILD WINGS GRILL & BAR",77084,29.861392,-95.6451173
271848,10838.96,"REPUBLICA SPORTS BAR & GRILL  ",77068,30.0120179,-95.4666548
271852,7397.91,"NAGOYA JAPANESE RESTAURANT AND",77449,29.7869271,-95.733802
271908,26344.93,"PIOLA                         ",77006,29.7427083,-95.3797071
271912,0,"THE WUNDERBAR                 ",77004,29.731139,-95.368278
271948,101750,"UP                            ",77027,29.7414014,-95.4448881
271967,38543.88,"BAYOU CITY EVENT CENTER       ",77054,29.6744614,-95.3955817
271978,4424.93,"GENGHIS GRILL                 ",77065,29.9154872,-95.6137244
271982,14670.9,"KEYSTONE ENTERTAINMENT, INC.  ",77074,29.6752133,-95.5397546
272057,33376.87,"KRYPTONITE                    ",77002,29.7644587,-95.3621677
272076,1704.93,"Y&S FOOD SERVICE INC.         ",77080,29.8075049,-95.5452763
272165,199688.96,"CHEERZ BAR & GRILL            ",77006,29.7492244,-95.3784277
272215,11870,"MONTANA'S SALOON              ",77339,30.040407,-95.251225
272239,113883.88,"DANNY'S PORCH                 ",77054,29.6785711,-95.417677
272251,20473.88,"BB'S CAFE                     ",77098,29.7336968,-95.4261548
272283,17302.99,"CASA NUEVA MEXICAN RESTAURANT ",77090,30.0076984,-95.462354
272301,19020,"CALIFORNIA PIZZA KITCHEN      ",77056,29.749952,-95.4602129
272305,17518.96,"CALIFORNIA PIZZA KITCHEN      ",77019,29.7527458,-95.4081902
272309,19380.9,"CALIFORNIA PIZZA KITCHEN      ",77024,29.7791275,-95.544359
272374,5126.87,"FLOWER CITY KARAOKE           ",77072,29.7129626,-95.5714943
272417,78853.88,"MIDNIGHT RODEO                ",77494,29.7768544,-95.7798359
272421,47223.88,"UNION TAVERN                  ",77598,29.5587411,-95.1462971
272425,51191.94,"CHICAGO GRILL                 ",77068,29.9897139,-95.4982701
272429,387.91,"JUAN MON'S                    ",77006,29.7518367,-95.3855864
272441,25816.87,"THE CONCERT PUB               ",77068,30.006313,-95.4680769
272453,20921.94,"BAR MUNICH                    ",77006,29.7467464,-95.3771169
272505,351102.99,"CELTIC GARDENS                ",77006,29.7487678,-95.3754676
272517,29051.94,"THE SPOT CLUB                 ",77008,29.801544,-95.431232
272565,0,"TACO PALENQUE                 ",77023,29.7142874,-95.316262
272581,8276.87,"GRATZI ITALIAN RESTAURANT     ",77379,30.0737643,-95.497423
272585,24830.9,"IGUANA JOES MEXICAN RESTAURANT",77346,29.9833002,-95.1620099
272606,84698.96,"JACKSON'S BAR                 ",77006,29.734177,-95.394212
272663,29000.9,"LAS MANANITAS  MEXICAN  RESTAU",77406,29.659399,-95.734741
272690,116321.94,"LUPE TORTILLAS MEXICAN RESTAUR",77494,29.7705949,-95.7757409
272727,14636.87,"NATACHEE'S SUPPER 'N PUNCH    ",77002,29.7387434,-95.3796714
272731,0,"DOUBLECROSS LOUNGE            ",77002,29.7524794,-95.3779815
272735,29065.97,"HOUSTON NATIONAL GOLF CLUB    ",77095,29.933343,-95.6653749
272767,18612.99,"DOC'S SPORTS BAR              ",77064,29.9161683,-95.5302337
272778,61970.9,"ON THE ROX BAR                ",77070,30.02193,-95.570952
272873,101967.91,"TANGO & MALBEC SOUTH AMERICAN ",77056,29.7373217,-95.4678042
272881,47203.88,"LUCKY'S PUB                   ",77009,29.7807433,-95.37211
272885,109820,"FITZGERALD'S                  ",77007,29.7818142,-95.388071
272901,17466.87,"TOP SUSHI                     ",77063,29.7368563,-95.5150293
272929,3882.99,"BON GA RESTAURANT INC         ",77055,29.7945628,-95.5356984
273069,13933.88,"K100 LOUNGE                   ",77072,29.706405,-95.556209
273077,13183.88,"HOUSTON AVENUE BAR            ",77007,29.807666,-95.375328
273081,3480,"COOL RUNNINGS JAMAICAN GRILL  ",77071,29.6557081,-95.5231358
273126,85430,"LUPE TORTILLA MEXICAN RESTAURA",77007,29.7745983,-95.4098311
273189,39401.94,"SORREL                        ",77098,29.7389786,-95.4134581
273204,11800,"EL NIDO NIGHT CLUB            ",77085,29.6161933,-95.498109
273208,0,"PUB XS                        ",77057,29.732412,-95.49111
273235,3218.96,"HYATT PLACE HOUSTON HOTEL     ",77060,29.9420309,-95.4005411
273272,9951.94,"SIMONE                        ",77005,29.723333,-95.415801
273295,31848.96,"BIG TYME BILLIARDS            ",77388,30.0535775,-95.4353168
273299,3787.91,"747 RESTAURANT & BAR          ",77017,29.664088,-95.260352
273314,65173.88,"THE DIRT                      ",77002,29.7535449,-95.3635147
273326,248847.91,"WESTIN HOTEL MEMORIAL CITY    ",77024,29.7826408,-95.5441313
273330,4097.91,"GRAN PALACIO                  ",77034,29.6494486,-95.2503177
273439,6993.88,"SPORT GRILL 249 & WINGS       ",77086,29.9309833,-95.5102857
273450,88724.93,"THE CHEESECAKE FACTORY        ",77024,29.7809172,-95.5359731
273458,184992.99,"F-BAR                         ",77006,29.7473793,-95.382452
273463,2980.9,"BBQ GARDEN KOREAN RESTAURANT  ",77080,29.8075916,-95.5452771
273475,71815.97,"THE BLUE FISH ON WASHINGTON   ",77007,29.7714791,-95.4209868
273479,20270.9,"THE OLDE IRISH PUB            ",77077,29.7405466,-95.5885843
273539,8231.94,"4500 WASHINGTON AVENUE        ",77007,29.770727,-95.406638
273595,15848.96,"ALICIA'S MEXICAN GRILLE 3, INC",77082,29.7314518,-95.5901637
273607,27857.91,"ETRO BAR                      ",77006,29.7431228,-95.3969013
273615,80163.88,"CHUY'S                        ",77449,29.7854508,-95.7394862
273630,63317.91,"BUFFALO WILD WINGS GRILL & BAR",77449,29.7900271,-95.7196281
273634,5323.88,"TACOS A GO-GO                 ",77007,29.7816103,-95.3899067
273638,103700,"CHRISTIAN'S TAILGATE BAR & GRI",77007,29.7818595,-95.3896577
273653,30646.87,"FRATELLI'S RISTORANTE         ",77055,29.794148,-95.483721
273730,9125.97,"EMBASSY SUITES HOUSTON DOWNTOW",77010,29.752956,-95.361339
273738,18428.96,"SERGIO'S MEXICAN GRILL INC    ",77433,29.7857811,-95.8114187
273787,475787.91,"BRASSERIE 19                  ",77019,29.7534679,-95.4072787
273799,70307.91,"EL REAL TEX MEX               ",77006,29.7443789,-95.3933474
273826,2648.96,"GENGHIS GRILL                 ",77494,29.7432675,-95.7751626
273864,77394.93,"THE BLUE FISH BAYOU PLACE     ",77002,29.7622492,-95.3663796
273876,2414.93,"FRANK 'N' STEINS              ",77498,29.6712356,-95.6424357
273896,65675.97,"HARD ROCK CAFE                ",77002,29.7626142,-95.3669675
273912,27674.93,"JJ'S BAR                      ",77084,29.8388415,-95.6457056
273924,2044.93,"TIA PANCHA/LAS CUMBRES        ",77037,29.887339,-95.393709
273940,22124.93,"MOOSENUCKLES                  ",77373,30.0350868,-95.3657695
273944,5424.93,"EL MISMO SPORTS BAR           ",77033,29.689172,-95.325627
273956,10176.87,"VOLVO KARAOKE                 ",77036,29.7189142,-95.5201129
273969,19895.97,"THREE SHEETS BAR & GRILL      ",77077,29.7472968,-95.5872633
273981,42737.91,"URBAN CRAVE                   ",77032,29.970895,-95.3207069
274000,82153.88,"THE DECK ON FOUNTAINVIEW      ",77057,29.733372,-95.4844973
274016,3324.93,"HACIENDA LA ESPERANZA RESTAURA",77022,29.8452755,-95.3765757
274039,53870,"VEGAS CLUB                    ",77077,29.7489489,-95.6437135
274043,1950,"KEREN CAFE & SPORTS BAR       ",77036,29.7083973,-95.5204023
274194,24058.96,"SPOTLIGHT KARAOKE MIDTOWN     ",77006,29.7457304,-95.3766832
274242,89768.96,"NORRIS CONFERENCE CENTERS & RE",77024,29.7820909,-95.5591678
274286,114523.88,"TRINITI                       ",77098,29.7401369,-95.4105004
274328,2522.99,"LA PLACITA MEXICAN RESTAURANT ",77095,29.9024907,-95.6339865
274360,145518.96,"GRINGO'S MEXICAN KITCHEN      ",77433,29.9669271,-95.6943809
274375,117675.97,"ARTISANS RESTAURANT           ",77006,29.7427083,-95.3797071
274394,0,"SCOTTY'S PUB                  ",77089,29.585048,-95.2133263
274418,20022.99,"THIRTEEN ENTERTAINMENT, L.L.C.",77008,29.7991479,-95.410102
274426,38107.91,"CHEDDAR'S CASUAL CAFE #540    ",77429,29.9510457,-95.6703253
274461,134166.87,"PULSE                         ",77007,29.77173,-95.408691
274476,338365.97,"KUNG FU SALOON                ",77007,29.7703128,-95.4157058
274488,30546.87,"TEJAS GRILL & SPORTS BAR      ",77010,29.7553371,-95.3625904
274495,49634.93,"BB'S CAFE - HOUSTON           ",77007,29.7812991,-95.3880047
274507,104951.94,"LITTLE WOODROW'S IN THE VILLAG",77005,29.7157587,-95.4146061
274532,39823.88,"CHATTER'S CAFE & BISTRO       ",77007,29.768141,-95.3975717
274543,4890,"TREE                          ",77055,29.7979693,-95.5256828
274567,10835.97,"FIESTA AZTECA MEXICAN RESTAURA",77346,29.965394,-95.1687772
274574,9362.99,"EDUARDO'S BAR                 ",77087,29.685472,-95.298899
274590,34107.91,"THE REFINERY                  ",77019,29.7580444,-95.3757499
274603,920.9,"TACO PALENQUE                 ",77087,29.698874,-95.2973105
274611,88576.87,"FELIX 55                      ",77005,29.7161658,-95.4153375
274627,48203.88,"GROOVES OF HOUSTON            ",77003,29.742365,-95.3595507
274789,27037.91,"BLACK WALNUT CAFE             ",77494,29.7439374,-95.7715365
274801,222888.96,"CHAMA GAUCHA BRAZILIAN STEAKHO",77057,29.7372901,-95.4831405
274805,73086.87,"SPORTIN' WOODY'S SPORTS BAR   ",77377,30.0120818,-95.608947
274866,1325.97,"STOCKYARD BAR-B-Q             ",77057,29.7380891,-95.4986195
274870,37115.97,"STADIA SPORTS GRILL-WESTGREEN ",77449,29.7869271,-95.733802
274927,22460,"LAS MANANITAS MEXICAN RESTAURA",77433,29.6594835,-95.7362554
275008,18043.88,"THE OLIVE GARDEN ITALIAN RESTA",77049,29.809611,-95.161526
275019,39992.99,"DOUBLE TROUBLE CAFFEINE AND CO",77002,29.7387434,-95.3796714
275023,0,"STAR CAFE                     ",77072,29.7039941,-95.5975392
275042,0,"NAPOLIS #6 PIZZERIA RESTAURANT",77063,29.7375614,-95.5373697
275058,24070.9,"THE BIRD & THE BEAR OUISIES AM",77098,29.742532,-95.4211788
275063,7076.87,"TREE BEARDS RESTAURANT        ",77002,29.7622072,-95.3618243
275106,13613.88,"EPIC 22                       ",77004,29.7216637,-95.3672442
275127,5720,"BANANA BAY BAR & GRILL        ",77057,29.7262443,-95.5013719
275190,39394.93,"CROSS-NATIONAL FINANCIAL L.L.C",77070,29.9668101,-95.5853663
275206,176434.93,"HOUSTON TEXANS GRILLE         ",77024,29.7790182,-95.5610984
275370,70544.93,"PUBLIC HOUSE HEIGHTS          ",77007,29.7818363,-95.3891282
275374,347295.97,"LITTLE WOODROW'S IN MIDTOWN   ",77006,29.7497669,-95.3773279
275401,74201.94,"MASONES                       ",77429,29.995107,-95.6208533
275469,9900,"ABUELO'S MEXICAN KITCHEN, INC.",77093,29.859846,-95.3333471
275473,246095.97,"REPUTATION                    ",77006,29.7457318,-95.3755614
275489,8623.88,"AKAIHI JAPANESE RESTAURANT    ",77379,30.0194207,-95.526708
275542,72991.94,"MOJO'S SPORTS GRILLE          ",77346,30.0096911,-95.1766379
275546,248741.94,"CHULA'S SPORTS CANTINA        ",77043,29.7863264,-95.5592232
275550,241155.97,"TWIN PEAKS                    ",77098,29.7314739,-95.4172099
275598,0,"EL CORRAL                     ",77036,29.7068225,-95.5166388
275614,98060,"OSTIONERIA MICHOACAN #8       ",77090,29.9883141,-95.425009
275618,54156.87,"TEXAS ROADHOUSE               ",77375,30.030572,-95.601021
275626,0,"LAS COPAS SPORTS BAR & GRILL  ",77061,29.6538622,-95.2542268
275634,96646.87,"SUNDANCE CINEMAS              ",77002,29.7625802,-95.3669137
275681,26270,"VIBE LOUNGE AND RESTAURANT    ",77072,29.7009318,-95.5719414
275781,108732.99,"CAT CORA KITCHEN              ",77032,29.9859438,-95.3359781
275876,78385.97,"MVSC-MONGOOSE VERSUS COBRA    ",77002,29.745266,-95.373441
275922,123667.91,"LUCKY'S PUB                   ",77433,29.9477138,-95.6642339
276007,87128.96,"VALENCIA ORANGES IV, LLC      ",77024,29.7736089,-95.5998166
276011,3570,"NEW DIAMOND CLUB & BAR        ",77072,29.7118101,-95.5714791
276241,22981.94,"RISING SUN SUSHI & FUSION REST",77396,29.9351175,-95.2489553
276245,37024.93,"ACADIA BAR & GRILL            ",77068,29.9939445,-95.4871608
276249,148080.9,"CLUB TEQUILA                  ",77074,29.690818,-95.5296746
276253,14721.94,"TOSTADA REGIA                 ",77029,29.7743975,-95.2388266
276292,9050,"FENWICK, LLC                  ",77057,29.7333289,-95.5016207
276334,146146.87,"GLORIA'S RESTAURANT           ",77006,29.7467464,-95.3771169
276357,126588.96,"THE MARQUE                    ",77024,29.7786274,-95.5618933
276380,12590,"MI LUNA                       ",77005,29.714806,-95.416625
276408,76716.87,"THE UNION KITCHEN             ",77024,29.766973,-95.552632
276435,1538.96,"SPRINGHILL BAR INC.           ",77061,29.654052,-95.2549392
276533,16705.97,"BENNIGAN'S RESTAURANT         ",77063,29.7368563,-95.5150293
276549,88591.94,"J. BLACK'S HOUSTON - WASHINGTO",77007,29.7686353,-95.3971091
276579,49911.94,"NICK'S RESTAURANT & SPORTS LOU",77073,30.0217818,-95.4234495
276583,40551.94,"NORSTROM BISTRO N             ",77056,29.735856,-95.464208
276593,299356.87,"EDDIE V'S #8507               ",77024,29.7790182,-95.5610984
276600,293834.93,"EDDIE V'S #8509               ",77098,29.7407969,-95.4192957
276612,33140,"BOMBERS SPORTS BAR            ",77034,29.588621,-95.183458
276638,1670.9,"KUBLAI KHAN CRAZY MONGOLIAN GR",77042,29.7362958,-95.5499819
276670,1420.9,"SUSHI CHOO CHOO               ",77057,29.7495511,-95.4997141
276674,1345.97,"PIZZA HUT                     ",77082,29.7222811,-95.6448482
276709,42616.87,"AMC GULF POINTE 30            ",77089,29.6048297,-95.2129496
276749,28606.87,"L'OLIVIER                     ",77006,29.744835,-95.384578
276830,77870.9,"LITTLE WOODROW'S IN THE HEIGHT",77009,29.7814308,-95.3873198
276846,30445.97,"AMC THEATRES STUDIO 30        ",77063,29.7319337,-95.5112999
276875,45220,"THE KINGS HEAD                ",77077,29.7488748,-95.6244867
276891,167525.97,"COTTONWOOD                    ",77018,29.818274,-95.40991
276902,2664.93,"GENCHIS GRILL                 ",77027,29.7283226,-95.4383982
276958,17543.88,"CANDELARI'S PIZZERIA          ",77007,29.7713205,-95.4223892
277023,31918.96,"THE OLIVE GARDEN ITALIAN RESTA",77449,29.7854472,-95.7386928
277027,46172.99,"BIKINIS SPORTS BAR & GRILL    ",77380,30.1145736,-95.4391999
277039,92513.88,"LUKE'S ICE HOUSE - HOUSTON, LL",77007,29.7698304,-95.410891
277079,64457.91,"MIA BELLA                     ",77002,29.7546546,-95.3651509
277139,917.91,"SHEGER ETHIOPIAN RESTAURANT   ",77081,29.7058546,-95.4768782
277163,25873.88,"TA'S CARGO                    ",77092,29.8218169,-95.4599158
277234,16480.9,"HOLIDAY INN AND SUITES WEST WE",77041,29.833956,-95.559014
277258,81670.9,"WAKEFIELD CROWBAR, LLC        ",77018,29.8218954,-95.4229988
277320,48841.94,"HOOTERS OF SPRING             ",77090,30.0226431,-95.4239816
277368,5544.93,"S BAR                         ",77055,29.7979693,-95.5256828
277429,1450,"HOUSTON BY NITE               ",77072,29.7134607,-95.5720607
277438,1172.99,"ALAFY'S VIP                   ",77087,29.7017677,-95.3030181
277461,14057.91,"TAQUERIA ARANDAS #3           ",77008,29.78777,-95.409519
277465,24641.94,"CROWNE PLAZA GALLERIA AREA    ",77024,29.783476,-95.4647918
277469,19943.88,"HOLIDAY INN HOUSTON RELIANT PA",77054,29.690335,-95.41112
277554,56803.88,"HOOTERS OF KIRBY              ",77098,29.7297889,-95.4174463
277574,11190.9,"LUCY ETHIOPIAN RESTAURANT & BA",77074,29.7135206,-95.5044061
277578,7183.88,"DEMERIS BARBECUE              ",77008,29.8005874,-95.4482664
277599,157210.9,"THE WEST END                  ",77056,29.7399367,-95.4704517
277624,29858.96,"CUCHARA                       ",77006,29.748418,-95.385446
277628,27310,"BLACK WALNUT CAFE             ",77007,29.761883,-95.4180386
277658,25487.91,"WOLFIES RESTURANT & BAR       ",77058,29.5501542,-95.1271572
277691,0,"MAYA LAGOON                   ",77039,29.9087466,-95.3512484
277710,29575.97,"THE CAFE EUROPE OLD WORLD COFF",77057,29.7363149,-95.4837837
277733,15386.87,"IT'Z                          ",77070,29.9639785,-95.554952
277768,39876.87,"LUCILLE'S                     ",77004,29.7238241,-95.3850761
277790,27674.93,"OUTLAW DAVE'S WORLDWIDE HEADQU",77007,29.7757301,-95.4270603
277794,52857.91,"BONEFISH GRILL                ",77598,29.5424228,-95.1423932
277805,50003.88,"CHATEAU DE COCOMAR            ",77069,29.9898161,-95.5386023
277809,155252.99,"THE PASS & PROVSISIONS        ",77019,29.7588183,-95.3856405
277817,0,"LEVEL 3                       ",77007,29.76871,-95.384205
277848,17590,"CLUB MYST                     ",77004,29.740927,-95.374685
277865,20864.93,"BABY'S CLUB                   ",77072,29.703003,-95.574644
277891,60147.91,"ALDEN HOTEL HOUSTON           ",77002,29.760056,-95.360259
277918,13170,"JULIA'S MEXICAN GRILL         ",77396,29.9407142,-95.2812859
277956,20883.88,"FUN PLANET                    ",77083,29.6896177,-95.6252206
277964,19450,"ALOFT HOUSTON                 ",77056,29.7384991,-95.4710061
277985,20166.87," WHO'S BAR  MY BAR            ",77084,29.8562437,-95.6450129
277993,70657.91,"SALTGRASS STEAKHOUSE          ",77429,29.9510732,-95.6703617
278001,4080,"RED VELVET DINNER CLUB, INC.  ",77072,29.704199,-95.594819
278044,146362.99,"MR PEEPLES RESTAURANT & ENTERT",77002,29.7526312,-95.3755742
278072,100287.91,"TOBINS ?                      ",77095,29.8792612,-95.640893
278100,18140.9,"MICHIRU SUSHI                 ",77027,29.7295979,-95.4375779
278104,462248.96,"THE DOGWOOD MIDTOWN           ",77006,29.749411,-95.378162
278162,170360,"DHR WEST LOOP BEVCO, INC.     ",77027,29.7416079,-95.4570004
278220,3743.88,"FISH CITY GRILL               ",77005,29.7268749,-95.429505
278224,50292.99,"WYNDHAM HOUSTON WEST ENERGY CO",77079,29.7872048,-95.6434198
278228,295810.9,"ROYAL SONESTA HOTEL HOUSTON   ",77027,29.7442614,-95.4587776
278232,27934.93,"APPLEBEE'S #8016 (ATASCOCITA) ",77346,29.9983633,-95.17171
278278,10441.94,"HARVEST ORGANIC GRILLE        ",77057,29.7491066,-95.4864768
278282,18908.96,"APPLEBEE'S #8020 (KATY)       ",77084,29.7860387,-95.7127639
278302,27066.87,"LONGHORN STEAKHOUSE #5443     ",77380,30.1145736,-95.4391999
278379,93347.91,"STONES THROW                  ",77006,29.742622,-95.3966718
278428,3260,"FUERTE MANAGEMENT, LLC        ",77015,29.7787386,-95.1869629
278491,24871.94,"APPLEBEE'S #8010 (HOUSTON 290)",77065,29.9144456,-95.6156683
278514,20111.94,"LYNN'S LONGBRANCH             ",77092,29.8407383,-95.4703775
278547,17308.96,"LA TAPATIA MEXICAN CAFE       ",77077,29.7377159,-95.5891983
278606,97610,"ON THE ROX SPORTS BAR AND GRIL",77346,29.9983312,-95.171706
278622,116938.96,"ETOILE CUISINE ET BAR         ",77056,29.7565604,-95.4573055
278626,27711.94,"APPLEBEE'S #8023 (18TH STREET)",77008,29.8018613,-95.448328
278647,8001.94,"HANK'S CRAWFISH               ",77077,29.7373328,-95.5833634
278702,0,"THE CLUB AT FALCON POINT      ",77494,29.773001,-95.794426
278729,0,"EAGLE HOUSTON                 ",77002,29.7635628,-95.3621425
278762,4303.88,"KORNBREAD'S POOL HALL 2K      ",77063,29.72823,-95.530403
278770,91090,"DOUBLETREE BY HILTON-GREENWAY ",77046,29.7309617,-95.4326055
278821,18650.9,"LONGHORN STEAKHOUSE #5439     ",77049,29.8159073,-95.164417
278841,84000,"THE CHEESECAKE FACTORY        ",77546,29.5197217,-95.16171
278886,81228.96,"LUPE TORTILLA MEXICAN RESTAURA",77346,29.9983002,-95.1690069
278921,18972.99,"HILTON GARDEN INN HOUSTON NORT",77040,29.8681506,-95.5468954
278925,83666.87,"WOLFIES RESTAURANT & SPORTS BA",77429,29.955153,-95.6702339
278929,52806.87,"UROPA                         ",77027,29.736278,-95.432381
278961,73243.88,"CAPITOL BAR                   ",77002,29.7462928,-95.3732696
279016,27105.97,"ADAIR KITCHEN                 ",77056,29.7493342,-95.4659542
279024,549357.91,"TOP GOLF                      ",77084,29.7873498,-95.6512542
279071,1564.93,"EL POLLO BRAVO #4             ",77007,29.7617866,-95.4173675
279075,10938.96,"PALAZZO'S TRATTORA            ",77098,29.742889,-95.415306
279091,9310.9,"WYNDHAM HOUSTON MEDICAL CENTER",77030,29.7071635,-95.4048328
279125,53390,"TWO MULES TAVERN              ",77388,30.0535775,-95.4353168
279174,57255.97,"APPLEBEE'S #8021 (WALLISVILLE)",77049,29.810659,-95.1645223
279190,105143.88,"TEXAS DE BRAZIL CHURRASCARIA  ",77024,29.7737111,-95.6000651
279204,63711.94,"FRANKS CHOP HOUSE             ",77027,29.7419595,-95.4400078
279208,91780.9,"CHR HI BEVCO LLC              ",77002,29.7625349,-95.3607859
279217,74673.88,"MAIN EVENT                    ",77494,29.7833158,-95.7923362
279221,88654.93,"BATANGA                       ",77002,29.7623665,-95.3614249
279247,155060.9,"TWIN PEAKS                    ",77040,29.84363,-95.494395
279255,2456.87,"ISLAND SPICE MARKET           ",77084,29.8657869,-95.6807477
279263,22601.94,"THE ALLEY KAT                 ",77002,29.7382816,-95.379987
279291,94205.97,"PALLADIUM 22                  ",77407,29.6716995,-95.7487136
279299,35583.88,"PISTOLEROS                    ",77006,29.7427825,-95.3981297
279331,1121.94,"CHIPOTLE MEXICAN GRILL        ",77007,29.7743702,-95.3972636
279350,1711.94,"MORENO'S MEXICAN RESTAURANT DO",77058,29.549069,-95.098293
279357,21163.88,"UNDERDOGS SPORTS PUB          ",77007,29.7704684,-95.4034199
279405,28853.88,"AMBROSIA                      ",77098,29.7319689,-95.4097249
279409,71931.94,"DRIFTERS BISTRO AND DRIFTERS L",77032,29.945363,-95.3306289
279413,2755.97,"LAQUINTA INN & SUITES         ",77070,29.9558345,-95.5531411
279457,58510.9,"P F CHANG'S CHINA BISTRO      ",77546,29.5197217,-95.16171
279461,9370.9,"TAQUERIA ARANDAS KATY         ",77450,29.7815264,-95.7517186
279469,14577.91,"TONY'S MEXICAN RESTAURANT     ",77094,29.7859396,-95.6843478
279480,135904.93,"OKRA CHARITY SALOON, L.L.C.   ",77002,29.7622463,-95.3613409
279500,9751.94,"888 BISTRO                    ",77062,29.555485,-95.12141
279571,0,"THE EVENTS COMPANY            ",77024,29.7846431,-95.4540706
279598,58434.93,"LOS RIELES BAR & GRILL        ",77075,29.6240689,-95.2313094
279602,11236.87,"TAQUERIA ARANDAS 45 & WEST RD ",77037,29.9183582,-95.412718
279614,20975.97,"APPLEBEE'S #8014 (WEST OAKS)  ",77082,29.7350117,-95.6485955
279662,9526.87,"FISH CITY GRILL               ",77494,29.7432675,-95.7751626
279716,6832.99,"V STAR                        ",77017,29.672725,-95.266126
279758,55065.97,"BONEFISH GRILL                ",77494,29.740746,-95.7746996
279791,1040,"GO HYANG KOREAN RESTAURANT    ",77055,29.794228,-95.522283
279814,33130.9,"LONGHORN STEAKHOUSE #5488     ",77598,29.5431543,-95.1437397
279866,8560,"CLUB XCESO                    ",77084,29.8365634,-95.6456883
279891,2595.97,"EL RIO MEXICAN RESTAURANT     ",77339,30.028703,-95.2406073
279895,56581.94,"N VINO VERITAS                ",77006,29.7457318,-95.3755614
279924,24907.91,"VIVIANA'S NITE CLUB           ",77092,29.8067935,-95.4578601
279931,38395.97,"LA CASA DEL CABALLO           ",77006,29.7447379,-95.3856887
279954,142118.96,"SEASONS 52 #4531              ",77027,29.742493,-95.4518329
279958,56797.91,"NORTHGATE COUNTRY CLUB        ",77068,30.0173614,-95.4832807
279966,9376.87,"CRAZY CAJUN SEAFOOD & SPORTS  ",77065,29.9138184,-95.5845728
279970,127123.88,"CHI CHI'S RICHMOND            ",77057,29.7312116,-95.4864101
279998,19080.9,"EMERALD BOWL INC              ",77099,29.6768792,-95.5737069
280002,11792.99,"MIDPOINT                      ",77449,29.785424,-95.7335488
280010,147260.9,"CHULA'S SPORTS CANTINA        ",77074,29.6775357,-95.5384585
280029,184005.97,"DEL FRISCO'S GRILLE           ",77098,29.7407969,-95.4192957
280043,21840,"BLACKJACKS BAR & GRILL        ",77084,29.8669378,-95.653013
280074,67667.91,"CAPTAIN FOXHEART'S BAD NEWS BA",77002,29.7620432,-95.359601
280128,161510,"EL TIEMPO CANTINA NAVIGATION  ",77003,29.7563571,-95.3415882
280141,40410,"GORO & GUN                    ",77002,29.7621352,-95.3612032
280160,0,"BLUE STEEL LOUNGE             ",77016,29.888591,-95.3001485
280164,268603.88,"3RD FLOOR                     ",77006,29.7490045,-95.3759901
280175,11444.93,"PUERTO TACOS Y CERVEZAS, LLC  ",77339,30.0322941,-95.17393
280179,26635.97,"50-50                         ",77021,29.700905,-95.346729
280231,7150.9,"WINSTON'S ON WASHINGTON       ",77007,29.7702776,-95.4130324
280247,13354.93,"HURRICANE GRILL AND WINGS     ",77069,29.9872781,-95.4992911
280274,54.93,"JO JO'S MONGOLIAN GRILL & SUSH",77494,29.785352,-95.7934312
280289,0,"LA JUGADA SPORTS BAR LLC      ",77099,29.6543248,-95.5674573
280301,0,"BIKINIS SPORTS BAR & GRILL    ",77064,29.9530646,-95.5394373
280338,25166.87,"CLUB VERTIGO'S                ",77036,29.7156554,-95.5377573
280350,1407.91,"EL PATRON BAR & CLUB          ",77034,29.6124152,-95.1901384
280354,9598.96,"TORCHY'S TACOS                ",77005,29.7169821,-95.4151178
280503,38576.87,"TALISMAN                      ",77076,29.851997,-95.396117
280507,197780.9,"LW BAR AND GRILL              ",77007,29.7687558,-95.4090217
280531,3996.87,"W2005/FARGO HOTELS (POOL B) TE",77060,29.9403629,-95.3885764
280539,54611.94,"GLASS WALL                    ",77008,29.7886942,-95.3881172
280553,4010.9,"TWISTED MARGARITA & DAIQUIRI B",77004,29.6147762,-95.4191252
280566,30351.94,"LONGHORN STEAKHOUSE #5481     ",77449,29.7854238,-95.729834
280618,25667.91,"GYU-KAKU RESTAURANT           ",77002,29.7507967,-95.375609
280629,33145.97,"THE DECK HOUSE BAR & GRILL    ",77057,29.7305648,-95.4807603
280633,131022.99,"GRACE'S ON KIRBY              ",77098,29.736955,-95.4187153
280654,20075.97,"OSTERIA POST OAK, LP          ",77056,29.7432113,-95.4619171
280679,15894.93,"KATCH 22                      ",77007,29.7684565,-95.4102329
280695,11161.94,"LATRELLE'S GALLEY, LP         ",77032,29.9873604,-95.3373435
280714,79583.88,"THE FEDERAL GRILL             ",77007,29.7669988,-95.4090417
280759,83358.96,"BUFFALO WILD WINGS GRILL & BAR",77064,29.9550592,-95.5429366
280763,65326.87,"BUFFALO WILD WINGS GRILL & BAR",77002,29.7507967,-95.375609
280767,54167.91,"BUFFALO WILD WINGS GRILL & BAR",77005,29.717214,-95.417692
280783,55940,"BUFFALO WILD WINGS            ",77027,29.7339228,-95.4410482
280787,77620.9,"BUFFALO WILD WINGS GRILL & BAR",77007,29.7695815,-95.4003974
280826,59275.97,"BUFFALO WILD WINGS GRILL & BAR",77077,29.7352386,-95.585518
280859,8175.97,"BRAVOS MEXICAN RESTAURANT     ",77089,29.6112697,-95.2243298
280892,6580,"NAGOYA SUSHI JAPANESE RESTAURA",77494,29.7148487,-95.7763378
280982,2084.93,"MIDTOWN BAR & GRILL           ",77019,29.7531964,-95.3872075
281001,28106.87,"ECK BAR, LLC                  ",77433,29.9018113,-95.6848098
281016,85830,"60 DEGREES MASTERCRAFTED      ",77098,29.742889,-95.415306
281091,25651.94,"MI BAR                        ",77036,29.7097155,-95.5188783
281098,178327.91,"OJOS LOCOS SPORTS CANTINA     ",77034,29.6233659,-95.2270754
281137,0,"PAPPAS RESTAURANTS, INC.      ",77057,29.737055,-95.488924
281208,85360,"BARCUTERIE                    ",77032,29.9873604,-95.3373435
281212,57660,"FRUITERIA                     ",77032,29.9867028,-95.3479921
281216,38858.96,"3RD BAR                       ",77032,29.9873604,-95.3373435
281239,53496.87,"BAYOU CITY BAR & GRILL        ",77006,29.7477273,-95.3908014
281255,13093.88,"GREAT BERNARDS                ",77006,29.743863,-95.381268
281259,22288.96,"HUGHIE'S                      ",77008,29.8015421,-95.4317381
281277,13393.88,"GRUB BURGER BAR               ",77024,29.7703557,-95.6005175
281303,6768.96,"THRONE HOUSTON                ",77007,29.7675735,-95.3765367
281352,97505.97,"310 BAR GROUP, L.L.C.         ",77002,29.7620166,-95.361285
281376,7223.88,"BREWINGZ                      ",77023,29.7128389,-95.3131183
281380,25456.87,"BREWINGZ                      ",77015,29.7702495,-95.1861645
281392,10013.88,"BREWINGZ                      ",77598,29.5385634,-95.1471479
281396,18427.91,"BREWINGZ                      ",77034,29.6215019,-95.2229788
281418,11581.94,"ALIEF TAVERN                  ",77072,29.699103,-95.5873552
281422,5234.93,"BREWINGZ                      ",77450,29.7770536,-95.7516792
281426,16068.96,"BREWINGZ                      ",77070,30.0095265,-95.5896172
281430,19562.99,"BREWINGZ                      ",77024,29.7857878,-95.4647994
281434,7731.94,"BREWINGZ                      ",77040,29.8545807,-95.5141415
281438,11008.96,"BREWINGZ                      ",77077,29.7345544,-95.6052056
281446,9905.97,"BREWINGZ                      ",77074,29.690818,-95.5296746
281450,22706.87,"BREWINGZ                      ",77075,29.5991514,-95.2682467
281466,71862.99,"MASONES SALOON                ",77065,29.9377879,-95.6288994
281505,7904.93,"CAFE MEZZA & GRILLE           ",77057,29.7389967,-95.4905009
281513,34960,"VOODOO QUEEN                  ",77003,29.747526,-95.337898
281570,32856.87,"STATUS LOUNGE                 ",77004,29.731071,-95.3680399
281594,15077.91,"BREWINGZ                      ",77076,29.8479301,-95.3936475
281602,4310.9,"CHYMISTRY BAR & LOUNGE        ",77047,29.6133952,-95.4061695
281618,15856.87,"MOJEAUXS LOUISIANA DRINKERY   ",77003,29.7531291,-95.3549568
281639,4305.97,"MUSEUM DISTRICT BISTRO & LOUNG",77004,29.727403,-95.386158
281643,4521.94,"LAS FLORES MEXICAN RESTAURANT ",77069,29.9905863,-95.5010176
281647,12856.87,"SUSHI HANA FUSION CUISINE     ",77406,29.6923193,-95.7723262
281651,34134.93,"CATERING BY ROSEMARY          ",77024,29.782828,-95.561985
281693,1920.9,"H & H SALOON                  ",77080,29.8324677,-95.5223543
281701,29684.93,"HOUSTON ALAMO BAR & GRILL     ",77086,29.9254885,-95.5136154
281761,11201.94,"CHAVEZ MEXICAN CAFE           ",77080,29.8183583,-95.5453364
281765,6504.93,"ROOM 28 KARAOKE LOUNGE        ",77063,29.7321866,-95.5217859
281777,150473.88,"RUTH'S CHRIS STEAK HOUSE      ",77056,29.7383996,-95.4714134
281785,3334.93,"DESI KORNER BAR               ",77074,29.7164341,-95.5008151
281824,1728.96,"UMAMI SUSHI                   ",77079,29.786712,-95.6440329
281832,186130.9,"VALLONE'S                     ",77024,29.7832625,-95.5457656
281848,590.9,"CHIPOTLE MEXICAN GRILL        ",77084,29.8777957,-95.6453631
281872,61750,"OSTIONERIA MICHOACAN #7       ",77055,29.8040007,-95.484966
281885,86482.99,"DOWN THE STREET               ",77007,29.779241,-95.42603
281912,257925.97,"CARACOL                       ",77056,29.7432113,-95.4619171
281916,5476.87,"DIRTY FINGERS                 ",77041,29.866284,-95.5846875
281921,34454.93,"DON RAMONS'S                  ",77069,29.9793086,-95.5122889
281925,22210,"D'AMICO'S ITALIAN MARKET CAFE ",77494,29.740746,-95.7746996
281929,40802.99,"WILD ALASKA TAVERN            ",77077,29.7375148,-95.5941439
281944,2114.93,"3 WISHES SPORTS BAR           ",77047,29.6237803,-95.3549297
281952,96630,"EL BIG BAD                    ",77002,29.76126,-95.3624789
282092,70264.93,"FRANK 'N' STEINS              ",77498,29.6712356,-95.6424357
282142,5846.87,"LES GIVRAL'S KAHVE            ",77007,29.7702111,-95.4077966
282155,18207.91,"ALLO FRENCH ROTISSERIE        ",77070,29.9958478,-95.5745396
282163,6844.93,"THEO'S RESTAURANT             ",77006,29.7449869,-95.3903003
282188,0,"PALACIO MARIA                 ",77450,29.7587195,-95.7483969
282192,57818.96,"NEON BOOTS                    ",77092,29.8143418,-95.4762683
282196,2307.91,"HUASTECA MEXICAN GRILL        ",77031,29.6515554,-95.5678927
282231,78465.97,"TIMEOUT #1 SPORTS BAR         ",77089,29.6139362,-95.2174165
282235,140110,"CHAPA                         ",77092,29.7999242,-95.4519128
282282,46628.96,"PUNK'S SIMPLE SOUTHERN FOOD   ",77005,29.7186924,-95.4149822
282297,24847.91,"THE SPAGHETTI WESTERN INTALIAN",77008,29.8027773,-95.4316672
282315,1828.96,"ADDIS ABABA RESTAURANT        ",77036,29.7088516,-95.5200967
282331,64091.94,"BARBARELLA HOUSTON            ",77002,29.7455664,-95.3716162
282383,23861.94,"FISH & THE KNIFE              ",77063,29.736944,-95.505441
282387,628.96,"HAPPY GARDEN RESTAURANT       ",77095,29.8894552,-95.6399984
282391,3072.99,"SWAMPY'S                      ",77073,30.021942,-95.3894035
282407,0,"PAPPAS BROS GRILL             ",77010,29.7553371,-95.3625904
282430,46262.99,"LEI LOW                       ",77009,29.8087164,-95.3893295
282459,48863.88,"BREMOND STREET GRILL          ",77006,29.7492244,-95.3784277
282500,6030,"ENCHILUDAS MEXICAN CAFE       ",77077,29.7355684,-95.6369687
282511,414.93,"SENOR BURRITO                 ",77041,29.832647,-95.5589908
282531,37983.88,"CAMPIONI RESTAURANT           ",77069,29.977672,-95.5393689
282555,7721.94,"WLS BEVERAGE COMPANY          ",77002,29.755362,-95.366839
282676,15000.9,"BRICK & SPOOK                 ",77006,29.738972,-95.395248
282771,285634.93,"THE CAPITAL GRILLE #8057      ",77024,29.7799648,-95.5620053
282775,5384.93,"8 LOUNGE                      ",77064,29.937705,-95.48788
282805,170965.97,"SEASONS 52 #4542              ",77024,29.7804663,-95.5620831
282809,22885.97,"HOUSTON ENGINEERING & SCIENTIF",77056,29.739707,-95.4735849
282817,119425.97,"BRICK HOUSE TAVERN + TAP      ",77064,29.9527908,-95.5389785
282842,471.94,"CHIPOTLE MEXICAN GRILL        ",77077,29.7683972,-95.6241326
282866,1646.87,"CHUAN'S CHINESE RESTAURANT    ",77057,29.7368681,-95.4850068
282870,30147.91,"LITTLE DIPPER LOUNGE          ",77002,29.7621591,-95.3611062
282914,47842.99,"DOWNTOWN CAFE                 ",77002,29.762246,-95.361126
282918,53716.87,"NOUVEAU ANTIQUE ART BAR LLC   ",77002,29.742988,-95.375623
282968,68696.87,"AMALFI                        ",77057,29.7389967,-95.4905009
282972,1936.87,"NEW BAR                       ",77032,29.9406999,-95.3304048
282998,240304.93,"TWIN PEAKS                    ",77079,29.7836199,-95.5830956
283032,562.99,"MAGGIE RITA'S DOWNTOWN LTD    ",77002,29.7559064,-95.3638873
283052,106063.88,"PLUCKERS WING BAR             ",77007,29.7735952,-95.4093677
283083,6361.94,"COURTYARD MARRIOTT HOUSTON MED",77030,29.696675,-95.413606
283106,12330.9,"AMC THEATRES WILLOWBROOK 24   ",77064,29.9550592,-95.5429366
283114,220568.96,"STAMPEDE                      ",77039,29.8979203,-95.318642
283188,0,"STERLING HOUSE                ",77006,29.745297,-95.381306
283224,10294.93,"GOLDEN SEAFOOD                ",77450,29.762837,-95.7507959
283228,58044.93,"BARCELONA RESTAURANT & LOUNGE ",77070,29.994345,-95.5721842
283306,1167.91,"EL COYOTE SPORTS BAR          ",77026,29.783162,-95.350851
283438,0,"BRIXOLOGY CRAFTED COCKTAILS   ",77070,29.994345,-95.5721842
283445,19620.9,"BREWSKIS PUB & PATIO SPORTS BA",77064,29.930875,-95.5440969
283462,9342.99,"BAR SPORTS                    ",77040,29.8585,-95.5396885
283477,62516.87,"REVELRY ON RICHMOND           ",77006,29.7340163,-95.4000021
283505,933.88,"CHIPOTLE MEXICAN GRILL        ",77006,29.746478,-95.3765896
283509,5641.94,"COURTYARD HOUSTON BROOKHOLLOW ",77092,29.8091211,-95.4436014
283517,16648.96,"LOCAL FOODS                   ",77019,29.7425611,-95.4181027
283537,70163.88,"JIMMY CHANGAS #3 INC.         ",77450,29.7828185,-95.7358709
283551,130984.93,"CHURRASCOS                    ",77024,29.7832625,-95.5457656
283578,4050.9,"ANOTHER BROKEN EGG CAFE       ",77070,29.9958405,-95.574503
283586,29180,"BLACK WALNUT CAFE             ",77070,29.9966684,-95.5709278
283594,6381.94,"COURTYARD KINGWOOD            ",77339,30.0595749,-95.2470404
283641,60855.97,"VUELVE A LA VIDA MARISCOS     ",77070,29.9914563,-95.5764359
283690,18764.93,"ENCORE SPORTS LOUNGE          ",77047,29.6033387,-95.4708612
283698,46045.97,"THE LEINSTER                  ",77019,29.7585163,-95.3985743
283730,15334.93,"WITCHCRAFT TAVERN & PROVISIONS",77008,29.790203,-95.4091792
283798,0,"EUREST DINING SERVICES @ AIG  ",77019,29.7602556,-95.3947109
283839,9447.91,"FACON BRAZILIAN STEAKHOUSE, LL",77070,29.9958478,-95.5745396
283876,1728.96,"FAIRFIELD INN & SUITES IAH    ",77032,29.936734,-95.328868
283904,25033.88,"THE OLIVE GARDEN ITALIAN RESTA",77090,29.9984268,-95.4254249
283962,0,"ALFREDO'S TEQUILA GRILL       ",77089,29.5854476,-95.2109692
284012,5228.96,"RUCHI'S EL RINCON DE MEXICO GR",77084,29.8312878,-95.6599051
284022,67064.93,"ALAMO DRAFTHOUSE              ",77450,29.7767628,-95.7516744
284026,81370.9,"THE ALAMO DRAFTHOUSE          ",77070,29.9958232,-95.5739428
284118,738.96,"CASA LUPE MEXICAN RESTAURANT  ",77015,29.7933255,-95.1931562
284134,31202.99,"THE PLAYGROUND                ",77034,29.6292745,-95.2043434
284256,21548.96,"EL RANCHERO MEXICAN RESTAURANT",77096,29.6984603,-95.4128376
284302,0,"YUCATAN TACO STAND & TEQUILA  ",77008,29.7892204,-95.3881211
284318,0,"CHICAS LOCAS                  ",77037,29.8786035,-95.4107113
284377,0,"R. VELAZCO PROPERTIES, LLC    ",77038,29.925923,-95.466932
284422,11030,"HANK'S CAJUN GRILL            ",77084,29.8380676,-95.646262
284453,0,"SCRAPPY BROWN'S               ",77004,29.7259937,-95.3779547
284487,4116.87,"ACE OF SPADES HOUSTON         ",77057,29.7320258,-95.4918829
284554,21493.88,"BB'S CAFE                     ",77057,29.738325,-95.492154
284574,9487.91,"KAM'S FINE CHINESE CUISINE    ",77006,29.7324431,-95.3912919
284617,3200,"EL VIAJERO SPORTS BAR         ",77031,29.6511477,-95.5688132
284637,57126.87,"NEIL'S BAHR                   ",77003,29.7522031,-95.3555475
284762,40176.87,"TAPS                          ",77006,29.7415092,-95.3793711
284815,247033.88,"SCLV HOUSTON BEVERAGE LLC     ",77010,29.7540639,-95.3626819
284819,20251.94,"CRAZY ALAN'S SWAMP SHACK      ",77029,29.7711822,-95.2257913
284879,0,"KDS BAR INC.                  ",77002,29.7619701,-95.3613318
284891,3237.91,"OPORTO MIDTOWN                ",77019,29.75329,-95.3797632
284939,27642.99,"TORCHY'S TACOS                ",77494,29.7432675,-95.7751626
284954,18306.87,"BREWINGZ SPORTS BAR & GRILL   ",77494,29.7834689,-95.7942064
284962,0,"POLOVINA ITALIAN CAFE         ",77007,29.770727,-95.406638
284974,14482.99,"WINGS N GO                    ",77015,29.79179,-95.2016529
284990,1100,"TAQUERIA CANCUN 7             ",77095,29.879771,-95.6025974
285016,13052.99,"PALMS BANQUET AND EVENT CENTER",77034,29.589522,-95.185813
285048,19236.87,"BRENDA'S TAQUERIA #3          ",77083,29.7036472,-95.6429517
285053,36740.9,"INDIGO                        ",77003,29.7440129,-95.3645351
285070,29210.9,"CHILI'S GRILL & BAR #1548     ",77079,29.7839441,-95.5999597
285074,67121.94,"EAGLE HOUSTON                 ",77006,29.74727,-95.3887456
285078,82090,"BEER MARKET CO                ",77007,29.767311,-95.3915812
285082,28208.96,"MUSEUM PARK CAFE              ",77004,29.721726,-95.382427
285121,12285.97,"TAQUERIA ARANDAS #4           ",77055,29.8050612,-95.4844085
285133,3354.93,"WLS BEVERAGE COMPANY          ",77056,29.729317,-95.46746
285148,144622.99,"OJOS LOCOS SPORTS CANTINA     ",77022,29.829401,-95.3816101
285156,5928.96,"WEIGHTS & MEASURES            ",77004,29.742636,-95.372765
285160,21465.97,"OSTIONERIA MICHOACAN # 5      ",77036,29.716497,-95.5380896
285164,30262.99,"LUCKY'S URBAN EATS-HOUSTON    ",77007,29.769502,-95.394605
285168,72682.99,"SAL Y PIMIENTA RESTAURANT     ",77024,29.7736911,-95.6000749
285199,349386.87,"BOMBSHELLS                    ",77034,29.6131659,-95.2133629
285203,1277.91,"PAPPAS BARBERQUE              ",77015,29.7696017,-95.2166104
285220,135815.97,"PAPPADEAUX SEAFOOD KITCHEN    ",77015,29.76972,-95.217633
285227,20046.87,"LA CIMA BAR AND GRILL         ",77067,29.9590325,-95.4764382
285235,0,"LUCILLE'S FRESH CATCH KITCHEN ",77339,30.0488435,-95.2327467
285239,99928.96,"DOC'S MOTORS WESTHEIMER HOUSTO",77006,29.7434601,-95.3950842
285293,159002.99,"PAPPASITOS CANTINA            ",77010,29.7515962,-95.360228
285323,2730.9,"GREATER HOUSTON GUN CLUB      ",77053,29.576066,-95.463952
285334,17270,"LILLO & ELLA RESTAURANT       ",77008,29.8068294,-95.4295554
285338,21132.99,"SONGKRAN                      ",77056,29.7565604,-95.4573055
285349,68121.94,"RAZZOO'S CAJUN CAFE           ",77388,30.067166,-95.436623
285369,9866.87,"TAQUERIA ARMENTA'S            ",77045,29.6176263,-95.4655016
285373,24918.96,"3333 R & B ENTERTAINMENT, INC.",77008,29.7888115,-95.4366932
285392,194491.94,"806 HOSPITALITY SERVICES, LLC ",77002,29.7584013,-95.3641462
285396,6772.99,"NYX ULTRA RESTURANT & LOUNGE  ",77072,29.7026857,-95.5717232
285400,30090,"SYLVIA'S                      ",77077,29.7678586,-95.6245322
285429,31065.97,"MIYAKO JAPANESE RESTAURANT    ",77057,29.7375711,-95.4967585
285440,452331.94,"THE GASLAMP                   ",77006,29.749146,-95.377789
285475,51202.99,"THE SPRINGBOK                 ",77002,29.758416,-95.3633123
285521,125926.87,"EL TIEMPO WOODLAKE, LLC       ",77063,29.7381971,-95.5386577
285552,0,"AKASAKA JAPANESE RESTAURANT LO",77072,29.6374246,-95.5305845
285588,46900.9,"CRESCENT MOON WINE BAR        ",77386,30.1029916,-95.3794694
285619,88480.9,"HOLLEY'S RESTAURANT           ",77006,29.7427083,-95.3797071
285692,32310,"MASCALZONE                    ",77077,29.7375148,-95.5941439
285708,14857.91,"KITTYMUFFIN                   ",77092,29.8410162,-95.4659772
285798,0,"BERRYHILL - OAK FOREST        ",77018,29.8279741,-95.4300003
285802,66052.99,"BONE DADDY'S HOUSE OF SMOKE   ",77064,29.95469,-95.54512
285845,153026.87,"SAGE COUNTY                   ",77006,29.7492244,-95.3784277
285852,0,"THE HOUSE                     ",77004,29.727803,-95.369807
285879,10202.99,"TOMIKO JAPANESE RESTAURANT & B",77433,29.9477138,-95.6642339
285926,47427.91,"TRUE FOOD KITCHEN             ",77056,29.7487033,-95.4617571
285946,0,"NORTH                         ",77056,29.7487033,-95.4617571
285958,16053.88,"DAK & BOP                     ",77004,29.721726,-95.382427
285986,0,"CEVICHE TRAINERA              ",77056,29.7487033,-95.4617571
286026,134420.9,"GRINGO'S MEXICAN KITCHEN      ",77373,30.0493625,-95.4305208
286039,624.93,"CHIPOTLE MEXICAN GRILL        ",77064,29.9030021,-95.5514207
286043,1834.93,"DRIFTWOOD BEVERAGE COMPANY, L.",77094,29.783699,-95.654251
286051,24310,"SWIG LOUNGE                   ",77090,29.9891982,-95.4259533
286055,149255.97,"FOX & HOUND SMOKEHOUSE & TAVER",77034,29.6141067,-95.2162125
286063,180946.87,"BOMBSHELLS                    ",77388,30.0405401,-95.4298403
286075,128080.9,"CHAMPPS AMERICANA #65221      ",77056,29.7571931,-95.4566919
286121,115445.97,"FOX & HOUND ENGLISH PUB & GRIL",77077,29.7370739,-95.5791618
286129,13524.93,"CATERING PLUS                 ",77005,29.7275861,-95.4208844
286141,8772.99,"URBAN KITCHEN                 ",77079,29.7714944,-95.590547
286164,4647.91,"SHOWBIZ KINGWOOD              ",77339,30.0669255,-95.2439134
286181,0,"SPRINGHILL SUITES             ",77090,29.9895175,-95.4241772
286209,3740,"PURE                          ",77002,29.760358,-95.361867
286225,0,"JCT KITCHEN                   ",77098,29.7424935,-95.425205
286266,4545.97,"COURTYARD HOUSTON NW/I-290    ",77040,29.8653425,-95.540717
286311,134277.91,"JULEP BAR                     ",77007,29.7674181,-95.378058
286399,4742.99,"DAN ELECTRO'S GUITAR BAR, LLC ",77009,29.8085692,-95.3857557
286443,14760,"FOUR POINTS BY SHERATON       ",77098,29.7313513,-95.4228009
286455,18968.96,"FRATTELLINI RISTORANTE ITALIAN",77379,30.007914,-95.5459169
286459,0,"EJ'S                          ",77006,29.7432858,-95.4010554
286467,324.93,"MOJARRA'S SEAFOOD             ",77076,29.8512241,-95.3836782
286494,3536.87,"ESCANDALO SPORTS BAR          ",77055,29.810966,-95.483248
286501,1100,"POLLO TROPICAL BEVERAGES, LLC ",77070,29.9993784,-95.5816356
301638,95991.94,"HEARSAY DISCOVERY GREEN",77010,29.752956,-95.361339
301672,138453.88,"THE GLASS DOOR",77007,29.7702645,-95.4141521
301691,7366.87,"BANANA BAY RESTAURANT & BAR",77036,29.7068225,-95.5166388
301708,0,"ROYAL PALACE",77075,29.6225501,-95.229564
286587,36163.88,"TORCHY'S TACOS                ",77070,29.9984589,-95.5622403
301751,5140,"CIC GLOBAL, INC.",77057,29.7372343,-95.4981349
301769,57922.99,"PUBLIC SERVICES BAR",77002,29.763468,-95.3612639
301784,0,"CONCRETE COWBOY HOUSTON",77007,29.7703128,-95.4157058
301798,0,BRAMBLE,77057,29.7449015,-95.5007311
286599,0,"AMC THEATRES SPRING 10        ",77388,30.0573083,-95.4381922
301806,0,CAPONES,77098,29.733971,-95.4153121
301811,14265.97,"SHY GIRLS SALOON",77044,29.885022,-95.161291
301847,28531.94,FLETCHER'S,77070,29.9613686,-95.5468504
301869,13014.93,"MYSTIQUE LOUNGE",77045,29.6147355,-95.4308086
301879,7288.96,"EL JIMADOR GRILL INC",77346,29.965394,-95.1687772
301899,4500,"DUKESSA HOUSTON",77056,29.7357931,-95.4769049
301903,26138.96,"MANNY'S MEXICAN SEAFOOD GRILL",77039,29.8921833,-95.3200514
301984,0,"KLH 909 LP",77002,29.7605731,-95.3626966
301994,640,"POLLO TROPICAL BEVERAGES",77057,29.737957,-95.500513
302009,0,"SCOREBOARDS SPORTS BAR & GRILL",77089,NULL,NULL
302029,0,"CHEZ GRILL MEXICAN-SEAFOOD AND",77450,29.7686491,-95.7515606
302075,6220,"GENESIS PRIME STEAKHOUSE & WIN",77081,29.703357,-95.475233
302094,77450.9,"CYCLONE ANAYA'S MEXICAN KITCHE",77005,29.718599,-95.4149802
302177,1364.93,"EL PICARON SPORTS BAR",77003,29.750307,-95.333475
302196,52580,"PAUL'S KITCHEN",77098,29.7322853,-95.4177479
302200,4500.9,"WILD CAJUN CRAWFISH",77083,29.704245,-95.624677
302212,16063.88,"MUCHO MEXICO",77084,29.8562297,-95.6450129
302216,16375.97,"GRAY'S PUBLIC HOUSE",77002,29.7507967,-95.375609
302263,41325.97,TGIFRIDAY'S,77598,29.542486,-95.1410369
302271,61467.91,TGIFRIDAY'S,77034,29.6149067,-95.2135301
302275,36302.99,TGIFRIDAY'S,77070,29.9628871,-95.5449774
302295,0,ROCKEFELLER'S,77007,29.7697886,-95.3967876
302316,16761.94,"LADYBIRDS BURGER MEX",77007,29.7746848,-95.4183531
302348,0,"APP8ITE BAR AND GRILL",77031,29.6584274,-95.5623511
302358,0,"HEIGHTS BIER GARDEN",77008,29.797354,-95.4103
302361,14054.93,"CENTER COURT PIZZA & BREW",77406,29.6963011,-95.8321363
302399,488.96,"CHIPOTLE MEXICAN GRILL",77008,29.8120254,-95.4221254
302427,0,"JINYA RAMEN BAR",77006,29.7427083,-95.3797071
302444,72652.99,"NIGHTINGALE ROOM BAR, L.L.C",77002,29.7620715,-95.3612509
302472,904.93,"NAM GANG RESTAURANT",77080,29.7953314,-95.5451415
302501,195.97,"MO'S IRISH PUB",77070,29.9953863,-95.5743724
302587,7692.99,"RAMADA IAH",77338,29.984854,-95.300299
302593,0,"PATRON SPORTS BAR",77076,29.8622185,-95.3840549
302602,56366.87,"CHURRASCOS CHAMPTIONS",77070,29.964618,-95.549562
302608,0,LIMEHOUSE,77006,29.7447601,-95.3865162
302633,4300,"LOS ESCORPIONES # 2",77015,29.7673925,-95.2167304
302641,858.96,"RINCON CRIOLLO CUBAN CUISINE",77077,29.742694,-95.645148
302647,0,"PIGGY'S TAVERN",77019,29.7579296,-95.4019988
302649,0,MASCALZONE,77007,29.7745813,-95.4092737
302654,0,"LOOP 20 TEXAS, INC.",77090,30.0070047,-95.4261878
302656,0,"BRICK & MORTAR KITCHEN",77407,29.6634085,-95.7425695
302660,59135.97,"CHRISTIAN'S TAILGATE",77079,29.786712,-95.6440329
302679,0,"DISH SOCIETY",77494,29.743257,-95.7758433
302681,2842.99,"RUSSO'S NEW YORK PIZZERIA",77406,29.6931518,-95.7729812
302734,0,"BB'S CAFE",77494,29.7755157,-95.778001
302739,0,"PELI PELI",77056,29.7397946,-95.4631754
302769,0,"CHIPOTLE MEXICAN GRILL",77388,30.065149,-95.4382832
286648,225350.9,"LAKESIDE COUNTRY CLUB         ",77042,29.7617275,-95.5781611
286701,50252.99,"BAYOU CLUB OF HOUSTON         ",77024,29.77697,-95.451389
286709,77168.96,"THE FOREST CLUB               ",77024,29.779675,-95.479778
286729,103708.96,"PETROLEUM CLUB OF HOUSTON     ",77002,29.753643,-95.369477
286737,293718.96,"HOUSTON COUNTRY CLUB          ",77057,29.7597172,-95.4891834
286807,397900.9,"RIVER OAKS COUNTRY CLUB       ",77019,29.755707,-95.428288
287061,13707.91,"LOCHINVAR GOLF CLUB           ",77073,29.9778246,-95.3789195
287110,23054.93,"THE BRIAR CLUB                ",77027,29.7406626,-95.4360008
287718,96400.9,"MOLLY'S PUB                   ",77339,30.0491772,-95.2488194
288239,48323.88,"SHADE CLUB                    ",77008,29.802639,-95.401129
288999,8430,"THE VIKING CLUB               ",77056,29.739545,-95.462716
289365,4616.87,"HAO LE DI KTV ASSOCIATE, INC. ",77036,29.7034968,-95.5536831
289563,100666.87,"CLUB DOWN HOUSE               ",77008,29.8020905,-95.3994863
289940,0,"ROBERT EARL'S HOUSE OF SPORTS ",77018,29.815352,-95.393091
290000,47800,"STAGE                         ",77036,29.7034968,-95.5536831
290041,37491.94,"HAROLD'S                      ",77008,29.802607,-95.403422
290180,32176.87,"TORCHY'S TACOS                ",77008,29.802607,-95.403422
290296,104011.94,"LBW 3320 WHITE OAK NP         ",77007,29.7817,-95.39371
290331,1998.96,"D'PLACE ASSOCIATION, INC.     ",77036,29.674407,-95.552125
302880,0,"THE DRAFT NP",77339,30.0609074,-95.2513927
302894,0,"JUS MAC CLUB",77008,29.8106343,-95.3995818
290669,6717.91,"DRY CREEK CAFE                ",77007,29.781279,-95.3986062
291107,4887.91,"VETERANS OF FOREIGN WARS POST ",77055,29.7989747,-95.5149292
291127,17213.88,"GARDEN OAKS POST 560          ",77018,29.8226015,-95.42004
291191,18854.93,"S HOUSTON POST 490 INC THE AME",77034,29.6017203,-95.1786193
292041,7043.88,"EAGLES AERIE 3098             ",77015,29.768231,-95.207735
292445,18815.97,"EL RANCHERO MEXICAN RESTAURANT",77339,30.0697185,-95.2417182
292449,81707.91,"CARRABBAS ITALIAN GRILL       ",77339,30.0504774,-95.244514
293601,45730,"TEXAS ROADHOUSE               ",77339,30.0635843,-95.247839
294318,91692.99,"LOS CUCOS MEXICAN CAFE        ",77339,30.061815,-95.248294
295371,37455.97,"CHEDDAR'S CASUAL CAFE         ",77449,29.7854313,-95.7379991
298914,368.96,"JO JO'S ASIAN BISTRO          ",77339,30.0649996,-95.2464672
300623,59186.87,"UNION KITCHEN                 ",77339,30.0623933,-95.2468461
303140,0,"BREWINGS SPORTS BAR GRILL",77339,30.0609074,-95.2513927
